storelocatorid,lat,lng,address,storeurl,name,storeimage,contact
438,-26.2025599,28.04406,"Shop 4 CNR Eloff & Kerk Street, Inner Court, Johannesburg, Gauteng, South Africa. - 2001",https://www.okfurniture.co.za/johannesburg-inner-court-1/, Johannesburg Inner Court  (7777),https://www.okfurniture.co.za/static/version1726604200/frontend/Smartwave/okf/en_GB/Magedelight_Storepickup/images/image-default.png,Phone no: <a href=
249,-24.594528,31.04998,"Shop 6, Main road, Acornhoek Plaza, Acornhoek, Limpopo, South Africa. - 1360",https://www.okfurniture.co.za/acornhoek/,Acornhoek (9350),https://www.okfurniture.co.za/static/version1726604200/frontend/Smartwave/okf/en_GB/Magedelight_Storepickup/images/image-default.png,Phone no: <a href=
15,-33.922867,18.422567,"1st Floor, Grand Parade Centre, 11 Adderley Street, Cape Town, Western Cape, South Africa. - 8001",https://www.okfurniture.co.za/adderley-street/,Adderley Street (8228),https://www.okfurniture.co.za/static/version1726604200/frontend/Smartwave/okf/en_GB/Magedelight_Storepickup/images/image-default.png,Phone no: <a href=
374,-26.266155,28.123457,"ALBERTONCITY, , SHOP NO 7&B, , VOORTREKKER & PIET R, South Africa. - 1450",https://www.okfurniture.co.za/alberton-city/,Alberton City (6337),https://www.okfurniture.co.za/static/version1726604200/frontend/Smartwave/okf/en_GB/Magedelight_Storepickup/images/image-default.png,Phone no: <a href=
107,-26.108999,28.086,"Shop IG 04 Alexandre Junction Centre ,Cnr 3rd Avenue & Watt Street , Alexandra, JHB Central, South Africa. - 999",https://www.okfurniture.co.za/alexandra/,Alexandra (4438),https://www.okfurniture.co.za/static/version1726604200/frontend/Smartwave/okf/en_GB/Magedelight_Storepickup/images/image-default.png,Phone no: <a href=
332,-26.108999,28.086,"Alexandra Mall , London Road , Alexandra, Johannesburg, Gauteng, South Africa. - 999",https://www.okfurniture.co.za/alexandra-mall/,Alexandra Mall (3554),https://www.okfurniture.co.za/static/version1726604200/frontend/Smartwave/okf/en_GB/Magedelight_Storepickup/images/image-default.png,Phone no: <a href=
257,-24.761,29.877001,"Shop 2, Bapedi Shopping Centre, D4250 Road, Apel, 0739, Apel, Limpopo, South Africa. - 739",https://www.okfurniture.co.za/apel/,Apel (9649),https://www.okfurniture.co.za/static/version1726604200/frontend/Smartwave/okf/en_GB/Magedelight_Storepickup/images/image-default.png,Phone no: <a href=
34,-33.8829047,18.7007123,"Atlantis City Mall, Cnt Arion & Rygersdal Drive, Atlantis, Western Cape, South Africa. - 7349",https://www.okfurniture.co.za/atlantis/,Atlantis (3853),https://www.okfurniture.co.za/static/version1726604200/frontend/Smartwave/okf/en_GB/Magedelight_Storepickup/images/image-default.png,Phone no: <a href=
219,-25.769175,28.082504,"Cnr Phudufudu & Mosalo Streets, Atteridgeville, Pretoria, South Africa. - 8",https://www.okfurniture.co.za/atteridgeville/,Atteridgeville (4760),https://www.okfurniture.co.za/static/version1726604200/frontend/Smartwave/okf/en_GB/Magedelight_Storepickup/images/image-default.png,Phone no: <a href=
269,-25.576893,27.159389,"Shop no 8 Bafokeng Plaza,Main Road R565 Bafokeng , Bafokeng, ZA, South Africa. - 299",https://www.okfurniture.co.za/bafokeng/,Bafokeng (9175),https://www.okfurniture.co.za/static/version1726604200/frontend/Smartwave/okf/en_GB/Magedelight_Storepickup/images/image-default.png,Phone no: <a href=
243,-26.660851,28.59012,"Shop 1 Centre@Stuart Building Stuart Street., Mpumalanga, South Africa. - 2410",https://www.okfurniture.co.za/balfour/,Balfour (9292),https://www.okfurniture.co.za/static/version1726604200/frontend/Smartwave/okf/en_GB/Magedelight_Storepickup/images/image-default.png,Phone no: <a href=
126,-26.2589,27.93,"Cnr Old Potch & Nicholas Rd, Soweto, Gauteng, South Africa. - 1864",https://www.okfurniture.co.za/bara-mall/,Bara Mall (4386),https://www.okfurniture.co.za/static/version1726604200/frontend/Smartwave/okf/en_GB/Magedelight_Storepickup/images/image-default.png,Phone no: <a href=
90,-25.790831,31.05311,"69 Crown Street, Barberton, Mpumalanga, South Africa. - 1300",https://www.okfurniture.co.za/barberton/,Barberton (4458),https://www.okfurniture.co.za/static/version1726604200/frontend/Smartwave/okf/en_GB/Magedelight_Storepickup/images/image-default.png,Phone no: <a href=
37,-32.3521,22.5769,"Donkin Street, Beaufort West, West Cape, South Africa. - 6970",https://www.okfurniture.co.za/beaufort-west/,Beaufort West (8074),https://www.okfurniture.co.za/static/version1726604200/frontend/Smartwave/okf/en_GB/Magedelight_Storepickup/images/image-default.png,Phone no: <a href=
385,-24.8851,28.29606,"Shop 1, Van Heerden Building, Bela Bela, South Africa. - 480",https://www.okfurniture.co.za/okf-bela-bela-2/,Bela Bela 2 (7160),https://www.okfurniture.co.za/static/version1726604200/frontend/Smartwave/okf/en_GB/Magedelight_Storepickup/images/image-default.png,Phone no: <a href=
25,-33.953419,18.647207,"Cnr Stellenbosch Arterial & Belhar Drive, Belhar, Western Cape, South Africa. - 7493",https://www.okfurniture.co.za/belhar/,Belhar (5201),https://www.okfurniture.co.za/static/version1726604200/frontend/Smartwave/okf/en_GB/Magedelight_Storepickup/images/image-default.png,Phone no: <a href=
434,-28.73073,29.35171,"Shop 18, Bergville Mall, Bergville, Bergville, Kwazulu Natal, South Africa. - 3350",https://www.okfurniture.co.za/bergville-1/,Bergville (5719),https://www.okfurniture.co.za/static/version1726604200/frontend/Smartwave/okf/en_GB/Magedelight_Storepickup/images/image-default.png,Phone no: <a href=
122,-26.423786,29.468004,"Cnr Jabulani Selepe & Vuyisile Mini, Bethal, Bethal, South Africa. - 2310",https://www.okfurniture.co.za/bethal/,Bethal (5644),https://www.okfurniture.co.za/static/version1726604200/frontend/Smartwave/okf/en_GB/Magedelight_Storepickup/images/image-default.png,Phone no: <a href=
255,-28.237499,28.300556,"20 High Street, Bethlehem, BETHLEHEM, South Africa. - 9700",https://www.okfurniture.co.za/bethlehem-high-street/,Bethlehem High Street (9378),https://www.okfurniture.co.za/static/version1726604200/frontend/Smartwave/okf/en_GB/Magedelight_Storepickup/images/image-default.png,Phone no: <a href=
86,-30.85923,29.852671,"Shoprite Centre, Shop 2,Main Street, Bizana, Kwazulu Natal, South Africa. - 4800",https://www.okfurniture.co.za/bizana/,Bizana (5489),https://www.okfurniture.co.za/static/version1726604200/frontend/Smartwave/okf/en_GB/Magedelight_Storepickup/images/image-default.png,Phone no: <a href=
40,-29.116659,26.219101,"Checkers Centre, 114 Elizabeth Street, Bloemfontein, Free State, South Africa. - 9301",https://www.okfurniture.co.za/bloemfontein/,Bloemfontein (6022),https://www.okfurniture.co.za/static/version1726604200/frontend/Smartwave/okf/en_GB/Magedelight_Storepickup/images/image-default.png,Phone no: <a href=
267,-29.116667,26.216667,"Central Park Shopping Centre, Cnr Fichardt & Hanger Str,Bloemfontein, Free State , Bloemfontein, ZA, South Africa. - 9301",https://www.okfurniture.co.za/bloemfontein-central-park/,Bloemfontein Central Park (9115),https://www.okfurniture.co.za/static/version1726604200/frontend/Smartwave/okf/en_GB/Magedelight_Storepickup/images/image-default.png,Phone no: <a href=
23,-33.999718,18.720335,"Shop 25, Cavalier Centre,Hindle Road, Blue Downs, Western Cape, South Africa. - 7100",https://www.okfurniture.co.za/blue-downs/,Blue Downs (4746),https://www.okfurniture.co.za/static/version1726604200/frontend/Smartwave/okf/en_GB/Magedelight_Storepickup/images/image-default.png,Phone no: <a href=
224,-33.814701,18.494436,"Shop 8, Blouberg Plaza, Bochum, Limpopo, South Africa. - 790",https://www.okfurniture.co.za/bochum-plaza/,Bochum Plaza (5830),https://www.okfurniture.co.za/static/version1726604200/frontend/Smartwave/okf/en_GB/Magedelight_Storepickup/images/image-default.png,Phone no: <a href=
131,-25.619473,27.272182,"Boitekong Mall, Cnr Thlou Street & P16-2, Rustenburg, North West, South Africa. - 299",https://www.okfurniture.co.za/boitekong/,Boitekong (3306),https://www.okfurniture.co.za/static/version1726604200/frontend/Smartwave/okf/en_GB/Magedelight_Storepickup/images/image-default.png,Phone no: <a href=
205,-24.84556,31.058611,"Shops 11 & 11A Old Complex, Bosbokrand, Mpumalanga, South Africa. - 1280",https://www.okfurniture.co.za/bosbokrand/,Bosbokrand (4907),https://www.okfurniture.co.za/static/version1726604200/frontend/Smartwave/okf/en_GB/Magedelight_Storepickup/images/image-default.png,Phone no: <a href=
41,-27.39465,26.616329,"27 Fontein Street, Bothaville, Free State, South Africa. - 9660",https://www.okfurniture.co.za/bothaville/,Bothaville (4779),https://www.okfurniture.co.za/static/version1726604200/frontend/Smartwave/okf/en_GB/Magedelight_Storepickup/images/image-default.png,Phone no: <a href=
58,-29.23608,26.72699,"Shop 53, Re-A-Hola Shopping Centre, Botshabelo, Free State, South Africa. - 9781",https://www.okfurniture.co.za/botshabelo/,Botshabelo (4010),https://www.okfurniture.co.za/static/version1726604200/frontend/Smartwave/okf/en_GB/Magedelight_Storepickup/images/image-default.png,Phone no: <a href=
321,-29.271305,26.706099,"Cnr Jazzman Mokgothu Highway & First stree, Botshabelo, Free State, South Africa. - 9781",https://www.okfurniture.co.za/botshabelo-mall/,Botshabelo Mall (6597),https://www.okfurniture.co.za/static/version1726604200/frontend/Smartwave/okf/en_GB/Magedelight_Storepickup/images/image-default.png,Phone no: <a href=
259,-28.427668,26.274939,"Shop 3, 31 Voortrekker Street , Brandfort, ZA, South Africa. - 9400",https://www.okfurniture.co.za/brandfort/,Brandfort (9458),https://www.okfurniture.co.za/static/version1726604200/frontend/Smartwave/okf/en_GB/Magedelight_Storepickup/images/image-default.png,Phone no: <a href=
132,-25.636593,27.779078,"Cnr Marray Ave & De Wet Str, Brits, North West, South Africa. - 250",https://www.okfurniture.co.za/brits/,Brits (6195),https://www.okfurniture.co.za/static/version1726604200/frontend/Smartwave/okf/en_GB/Magedelight_Storepickup/images/image-default.png,Phone no: <a href=
265,-25.806667,28.737223,"Erf 992, Godrich Centre, Cnr Lanham & Kort Street, Bronkhorstspruit, Bronkhorstspruit, South Africa. - 1020",https://www.okfurniture.co.za/bronkhorstspruit/,Bronkhorstspruit (9467),https://www.okfurniture.co.za/static/version1726604200/frontend/Smartwave/okf/en_GB/Magedelight_Storepickup/images/image-default.png,Phone no: <a href=
45,-28.289476,26.150805,"Cnr Paul Winters & Davin Str, Bultfontein, Free State, South Africa. - 9670",https://www.okfurniture.co.za/bultfontein/,Bultfontein (6640),https://www.okfurniture.co.za/static/version1726604200/frontend/Smartwave/okf/en_GB/Magedelight_Storepickup/images/image-default.png,Phone no: <a href=
89,-24.676737,30.330118,"Shop No 6,Castle Square,Piet Winterbach Street, Burgersfort, Mpumalanga, South Africa. - 1150",https://www.okfurniture.co.za/burgersfort/,Burgersfort (4346),https://www.okfurniture.co.za/static/version1726604200/frontend/Smartwave/okf/en_GB/Magedelight_Storepickup/images/image-default.png,Phone no: <a href=
291,-31.53973,27.695761,"Royal Hotel Complex, Tsomo road, Cala, EC, Cala, Eastern Cape, South Africa. - 890",https://www.okfurniture.co.za/cala/,Cala (6892),https://www.okfurniture.co.za/static/version1726604200/frontend/Smartwave/okf/en_GB/Magedelight_Storepickup/images/image-default.png,Phone no: <a href=
145,-26.358957,27.400576,"Shop NO 7 Gateway Mall ,Cnr Ormiumsst & Annan Service Rd, Carltonville, Goldfields, South Africa. - 2499",https://www.okfurniture.co.za/carltonville-2/,Carltonville  2 (5980),https://www.okfurniture.co.za/static/version1726604200/frontend/Smartwave/okf/en_GB/Magedelight_Storepickup/images/image-default.png,
144,-26.358999,27.382999,"Cnr Onyx & Paul Kruger Street, Carltonville, Goldfields, South Africa. - 2499",https://www.okfurniture.co.za/carltonville/,Carltonville (7874),https://www.okfurniture.co.za/static/version1726604200/frontend/Smartwave/okf/en_GB/Magedelight_Storepickup/images/image-default.png,Phone no: <a href=
342,-26.067398,30.112352,"46 Voortrekker Street, Carolina, South Africa. - 1185",https://www.okfurniture.co.za/carolina/,Carolina (8028),https://www.okfurniture.co.za/static/version1726604200/frontend/Smartwave/okf/en_GB/Magedelight_Storepickup/images/image-default.png,Phone no: <a href=
358,-27.910278,25.170555,"Erf 1539, Pretorius Street, Christiana, CHRISTIANA, South Africa. - 2680",https://www.okfurniture.co.za/christiana/,Christiana (6238),https://www.okfurniture.co.za/static/version1726604200/frontend/Smartwave/okf/en_GB/Magedelight_Storepickup/images/image-default.png,Phone no: <a href=
105,-25.975637,28.229687,"Shop No 27 , Phumulani Mall , Clayville, JHB Central, South Africa. - 1666",https://www.okfurniture.co.za/clayville/,Clayville (5353),https://www.okfurniture.co.za/static/version1726604200/frontend/Smartwave/okf/en_GB/Magedelight_Storepickup/images/image-default.png,Phone no: <a href=
5,-33.892078,25.523876,"Shop No 33 Cleary Park Shopping Centre, Cnr Stanford Middleton Redhouse , Cleary Park, Port Elizabeth, South Africa. - 6059",https://www.okfurniture.co.za/cleary-park/,Cleary Park (5560),https://www.okfurniture.co.za/static/version1726604200/frontend/Smartwave/okf/en_GB/Magedelight_Storepickup/images/image-default.png,Phone no: <a href=
363,-31.998422,27.579083,"Erf 215 Main Road, Eastern Cape, Eastern Cape, South Africa. - 5380",https://www.okfurniture.co.za/cofimvaba/,Cofimvaba (8110),https://www.okfurniture.co.za/static/version1726604200/frontend/Smartwave/okf/en_GB/Magedelight_Storepickup/images/image-default.png,Phone no: <a href=
403,-26.022089,27.92816,"CNR South Africa Drive and central african anvenue Cosmo City, Randburg, South Africa. - 2188",https://www.okfurniture.co.za/cosmo-city-1/,Cosmo City (9112),https://www.okfurniture.co.za/static/version1726604200/frontend/Smartwave/okf/en_GB/Magedelight_Storepickup/images/image-default.png,Phone no: <a href=
386,-32.166985,25.61771,"42 ADDERLY STREET, CRADOCK , South Africa. - 5800",https://www.okfurniture.co.za/cradock/,Cradock (5930),https://www.okfurniture.co.za/static/version1726604200/frontend/Smartwave/okf/en_GB/Magedelight_Storepickup/images/image-default.png,
283,-25.2458,31.820999,"Emoyeni Mall, portion 42 of farm Broderhoek, Empyeni MP, Emoyeni, Mpumalanga, South Africa. - 1055",https://www.okfurniture.co.za/daantjie/,Daantjie (8098),https://www.okfurniture.co.za/static/version1726604200/frontend/Smartwave/okf/en_GB/Magedelight_Storepickup/images/image-default.png,Phone no: <a href=
211,-25.717926,28.152697,"6383 Redelinghuys Street, , Daspoort, Pretoria, South Africa. - 82",https://www.okfurniture.co.za/daspoort/,Daspoort (9915),https://www.okfurniture.co.za/static/version1726604200/frontend/Smartwave/okf/en_GB/Magedelight_Storepickup/images/image-default.png,Phone no: <a href=
237,-26.135,28.407499,"Shop 8, Mayfield Square,Laurie Road, Daveyton, South Africa, South Africa. - 1520",https://www.okfurniture.co.za/daveyton/,Daveyton (6391),https://www.okfurniture.co.za/static/version1726604200/frontend/Smartwave/okf/en_GB/Magedelight_Storepickup/images/image-default.png,Phone no: <a href=
271,-26.313974,28.251541,"Dawnpark Shopping Centre, Shop 9, Galahad Road, Dawn Park, Gauteng, ZA, South Africa. - 1459",https://www.okfurniture.co.za/dawnpark/,Dawnpark (6386),https://www.okfurniture.co.za/static/version1726604200/frontend/Smartwave/okf/en_GB/Magedelight_Storepickup/images/image-default.png,Phone no: <a href=
364,-30.649164,24.010466,"53 VOORTREKKER STREET, CNR ALEXANDER & VOORTREKKER STR, De Aar, Free State, South Africa. - 7000",https://www.okfurniture.co.za/de-aar-2/,De Aar 2 (9377),https://www.okfurniture.co.za/static/version1726604200/frontend/Smartwave/okf/en_GB/Magedelight_Storepickup/images/image-default.png,Phone no: <a href=
262,-25.271933,26.411991,"Cnr Du Toit & Visser, Delareyville, South Africa, South Africa. - 2700",https://www.okfurniture.co.za/delareyville/,Delareyville (9368),https://www.okfurniture.co.za/static/version1726604200/frontend/Smartwave/okf/en_GB/Magedelight_Storepickup/images/image-default.png,Phone no: <a href=
336,-33.975761,18.5788,"Shop 25 ,Delft Mall ,Cnr Hindle & Delft Main Rd, Delft, Cape Town, South Africa. - 7100",https://www.okfurniture.co.za/delft-okf/,Delft OKF (8023),https://www.okfurniture.co.za/static/version1726604200/frontend/Smartwave/okf/en_GB/Magedelight_Storepickup/images/image-default.png,Phone no: <a href=
158,-26.155418,28.669006,"9 Sarel Cilliers Street, Delmas, Gauteng East, South Africa. - 2210",https://www.okfurniture.co.za/delmas/,Delmas (3145),https://www.okfurniture.co.za/static/version1726604200/frontend/Smartwave/okf/en_GB/Magedelight_Storepickup/images/image-default.png,Phone no: <a href=
278,-26.21187,27.87006,"Shop No 56, Dobsonville Shopping Centre, Roodepoort Road, Soweto, Gauteng, South Africa. - 1863",https://www.okfurniture.co.za/dobsonville-pex/,Dobsonville PEX  (6585) ,https://www.okfurniture.co.za/static/version1726604200/frontend/Smartwave/okf/en_GB/Magedelight_Storepickup/images/image-default.png,Phone no: <a href=
339,-24.803732,31.084225,"Shop 2 Dwarsloop Mall, Dwarsloop, Dwarsloop, Mpumalanga, South Africa. - 1280",https://www.okfurniture.co.za/dwarsloop-okf/,Dwarsloop OKF (3923),https://www.okfurniture.co.za/static/version1726604200/frontend/Smartwave/okf/en_GB/Magedelight_Storepickup/images/image-default.png,Phone no: <a href=
274,-33.013412,27.902906,"Manson Centre, Oxford Street, East London, Eastern Cape, South Africa. - 5201",https://www.okfurniture.co.za/east-london-oxford-street/,East London Oxford Street (9374),https://www.okfurniture.co.za/static/version1726604200/frontend/Smartwave/okf/en_GB/Magedelight_Storepickup/images/image-default.png,Phone no: <a href=
79,-29.64806,30.341961,"Shop 92, Edendale Mall,c/o Sinathingi Road & B50, Edendale, PMB, Kwazulu Natal, South Africa. - 3217",https://www.okfurniture.co.za/edendale/,Edendale (3015),https://www.okfurniture.co.za/static/version1726604200/frontend/Smartwave/okf/en_GB/Magedelight_Storepickup/images/image-default.png,Phone no: <a href=
301,-34.003933,18.729275,"Eerste Rivier Mall, Cnr Plein & Van Riebeek str, Eerste Rivier, Cape Town, South Africa. - 7100",https://www.okfurniture.co.za/eerste-rivier/,Eerste Rivier (3167),https://www.okfurniture.co.za/static/version1726604200/frontend/Smartwave/okf/en_GB/Magedelight_Storepickup/images/image-default.png,Phone no: <a href=
202,-23.1563,30.05538,"Hospital Street, Elim, Limpopo, South Africa. - 960",https://www.okfurniture.co.za/elim/,Elim (3832),https://www.okfurniture.co.za/static/version1726604200/frontend/Smartwave/okf/en_GB/Magedelight_Storepickup/images/image-default.png,Phone no: <a href=
415,-26.05239604184724,30.798762497619972,"Shop No.14, Elukwatini Complex Centre, Elukwatini, Mpumalanga, South Africa. - 1192",https://www.okfurniture.co.za/elukwatini-okf-1/,Elukwatini OKF (9453),https://www.okfurniture.co.za/static/version1726604200/frontend/Smartwave/okf/en_GB/Magedelight_Storepickup/images/image-default.png,Phone no: <a href=
125,-26.545189,29.077755,"Shop 37 Embalenhe Plaza, Embalenhe, Secunda, South Africa. - 2285",https://www.okfurniture.co.za/embalenhe/,Embalenhle (4917),https://www.okfurniture.co.za/static/version1726604200/frontend/Smartwave/okf/en_GB/Magedelight_Storepickup/images/image-default.png,Phone no: <a href=
413,-27.995320536256706,30.72772777828579,"Lease No.1 Of The Remainder Of The Farm Emondlo, No 8TS, Emondlo, KwaZulu-Natal, South Africa. - 3105",https://www.okfurniture.co.za/okf-emondlo-1/,Emondlo Mall OKF (1721),https://www.okfurniture.co.za/static/version1726604200/frontend/Smartwave/okf/en_GB/Magedelight_Storepickup/images/image-default.png,Phone no: <a href=
119,-26.523479,29.990179,"No 2 Ennis street, Ermelo Mall, GAUTENG, South Africa. - 2350",https://www.okfurniture.co.za/ermelo/,Ermelo (5482),https://www.okfurniture.co.za/static/version1726604200/frontend/Smartwave/okf/en_GB/Magedelight_Storepickup/images/image-default.png,Phone no: <a href=
64,-28.896891,31.46587,"1 Osbourne Road, Eshowe, Kwazulu Natal, South Africa. - 3815",https://www.okfurniture.co.za/eshowe/,Eshowe (9088),https://www.okfurniture.co.za/static/version1726604200/frontend/Smartwave/okf/en_GB/Magedelight_Storepickup/images/image-default.png,Phone no: <a href=
242,-29.006861,29.8729,"157 Albert Street Estcourt., Kwazulu Natal, South Africa. - 3310",https://www.okfurniture.co.za/estcourt/,Estcourt (9297),https://www.okfurniture.co.za/static/version1726604200/frontend/Smartwave/okf/en_GB/Magedelight_Storepickup/images/image-default.png,Phone no: <a href=
185,-26.53072,27.82531,"c/o Southern Boundary & Charleston Str, Evaton, Vaal triangle, South Africa. - 1984",https://www.okfurniture.co.za/evaton-plaza/,Evaton Plaza (4756),https://www.okfurniture.co.za/static/version1726604200/frontend/Smartwave/okf/en_GB/Magedelight_Storepickup/images/image-default.png,Phone no: <a href=
50,-28.877024,27.887794,"48 Erwee Street, Fiksburg, Free State, South Africa. - 9730",https://www.okfurniture.co.za/ficksburg/,Ficksburg (5471),https://www.okfurniture.co.za/static/version1726604200/frontend/Smartwave/okf/en_GB/Magedelight_Storepickup/images/image-default.png,Phone no: <a href=
19,-34.143921,18.436419,"Cnr De Waal & Main Road, Fish Hoek, Western Cape, South Africa. - 7975",https://www.okfurniture.co.za/fish-hoek/,Fish Hoek (8278),https://www.okfurniture.co.za/static/version1726604200/frontend/Smartwave/okf/en_GB/Magedelight_Storepickup/images/image-default.png,Phone no: <a href=
254,-31.08,29.504444,"Shop No1, ERF 84, Main Street, Flagstaff, Eastern Cape, South Africa. - 4810",https://www.okfurniture.co.za/flagstaff/,Flagstaff (9405),https://www.okfurniture.co.za/static/version1726604200/frontend/Smartwave/okf/en_GB/Magedelight_Storepickup/images/image-default.png,Phone no: <a href=
12,-32.779018,26.62989,"53 Cambell Road, Fort Beaufort, Eastern Cape, South Africa. - 5720",https://www.okfurniture.co.za/fort-beaufort/,Fort Beaufort (5189),https://www.okfurniture.co.za/static/version1726604200/frontend/Smartwave/okf/en_GB/Magedelight_Storepickup/images/image-default.png,Phone no: <a href=
214,-25.588196,28.006899,"Zone 15, Lucas Mangope Highway, Garankuwa, Pretoria, South Africa. - 208",https://www.okfurniture.co.za/garankuwa/,Garankuwa (9614),https://www.okfurniture.co.za/static/version1726604200/frontend/Smartwave/okf/en_GB/Magedelight_Storepickup/images/image-default.png,Phone no: <a href=
389,-33.961819,22.459227,"106 MEADE STREET, GEORGE, South Africa. - 6529",https://www.okfurniture.co.za/george/,George (9290),https://www.okfurniture.co.za/static/version1726604200/frontend/Smartwave/okf/en_GB/Magedelight_Storepickup/images/image-default.png,Phone no: <a href=
189,-26.214001,28.167,"Victoria Ave, Germiston, Germiston, South Africa. - 1400",https://www.okfurniture.co.za/germiston/,Germiston (5709),https://www.okfurniture.co.za/static/version1726604200/frontend/Smartwave/okf/en_GB/Magedelight_Storepickup/images/image-default.png,Phone no: <a href=
217,-23.042004,29.912455,"Cnr 11th Avenue & Friederika Streets, Gezina, Pretoria, South Africa. - 84",https://www.okfurniture.co.za/gezina/,Gezina (9664),https://www.okfurniture.co.za/static/version1726604200/frontend/Smartwave/okf/en_GB/Magedelight_Storepickup/images/image-default.png,Phone no: <a href=
203,-23.313999,30.726,"Shoprite Centre, Giyani, Limpopo, South Africa. - 826",https://www.okfurniture.co.za/giyani/,Giyani (4016),https://www.okfurniture.co.za/static/version1726604200/frontend/Smartwave/okf/en_GB/Magedelight_Storepickup/images/image-default.png,Phone no: <a href=
357,-23.311111,30.69161,"Shop 10, Masingita Mall, Cnr First & Giyani Road, Giyani, Giyani, South Africa. - 826",https://www.okfurniture.co.za/giyani-2/,Giyani 2 (6089),https://www.okfurniture.co.za/static/version1726604200/frontend/Smartwave/okf/en_GB/Magedelight_Storepickup/images/image-default.png,Phone no: <a href=
284,-32.248932,24.53401,"42 Caledon street, Graaf Reinette, Eastern Cape, Graaf Reinette, South Africa, South Africa. - 6280",https://www.okfurniture.co.za/graaf-reinette/,Graaf Reinette (9373),https://www.okfurniture.co.za/static/version1726604200/frontend/Smartwave/okf/en_GB/Magedelight_Storepickup/images/image-default.png,Phone no: <a href=
275,-34.149769,19.01667,"2 Ryke Street, Grabouw, South Africa, South Africa. - 1760",https://www.okfurniture.co.za/grabouw/,Grabouw (9481),https://www.okfurniture.co.za/static/version1726604200/frontend/Smartwave/okf/en_GB/Magedelight_Storepickup/images/image-default.png,Phone no: <a href=
9,-33.311935,26.529877,"63 Bathurst Street, Grahamstown, Eastern Cape, South Africa. - 6139",https://www.okfurniture.co.za/grahamstown/,Grahamstown (9240),https://www.okfurniture.co.za/static/version1726604200/frontend/Smartwave/okf/en_GB/Magedelight_Storepickup/images/image-default.png,Phone no: <a href=
1,-33.949909,25.577002,"Shop 17Shoprite Mall Greenacres, Port Elizabeth, Greenacres, Port Elizabeth, South Africa. - 6045",https://www.okfurniture.co.za/greenacres/,Greenacres (9494),https://www.okfurniture.co.za/static/version1726604200/frontend/Smartwave/okf/en_GB/Magedelight_Storepickup/images/image-default.png,Phone no: <a href=
281,-29.06011,30.59115,"130 Pine Street, Greytown, Greytown, Kwa Zulu Natal, South Africa. - 4000",https://www.okfurniture.co.za/greytown/,Greytown (6812),https://www.okfurniture.co.za/static/version1726604200/frontend/Smartwave/okf/en_GB/Magedelight_Storepickup/images/image-default.png,Phone no: <a href=
289,-29.8016,30.629013,"Shop A14 Hammersdale Junction Cnr Kunene and R25 Hammersdale, Hammarsdale, Hammersdale, South Africa. - 3699",https://www.okfurniture.co.za/hammarsdale/,Hammarsdale (6807),https://www.okfurniture.co.za/static/version1726604200/frontend/Smartwave/okf/en_GB/Magedelight_Storepickup/images/image-default.png,Phone no: <a href=
73,-28.268782,29.124731,"28 Bester Street, Harrismith, Kwazulu Natal, South Africa. - 9880",https://www.okfurniture.co.za/harrismith/,Harrismith (8325),https://www.okfurniture.co.za/static/version1726604200/frontend/Smartwave/okf/en_GB/Magedelight_Storepickup/images/image-default.png,Phone no: <a href=
95,-25.06665,31.12789,"Shop 119 Blue Haze Centre, Hazyview, Mpumalanga, South Africa. - 1242",https://www.okfurniture.co.za/hazyview/,Hazyview (4884),https://www.okfurniture.co.za/static/version1726604200/frontend/Smartwave/okf/en_GB/Magedelight_Storepickup/images/image-default.png,Phone no: <a href=
209,-25.580614,28.117226,"571 Hebron Road,, Pta North, Soshanguve, South Africa. - 152",https://www.okfurniture.co.za/hebron/,Hebron (5520),https://www.okfurniture.co.za/static/version1726604200/frontend/Smartwave/okf/en_GB/Magedelight_Storepickup/images/image-default.png,Phone no: <a href=
396,-25.5750352,28.1501664,"Shop No.35, Hebron Mall, Hebron Road, Pretoria, Soshanguve, South Africa. - 0164",https://www.okfurniture.co.za/hebron-mall-okf/,Hebron Mall OKF (9362),https://www.okfurniture.co.za/static/version1726604200/frontend/Smartwave/okf/en_GB/Magedelight_Storepickup/images/image-default.png,Phone no: <a href=
39,-29.092449,26.112854,"Shop 53, Twin City Shopping Centre,Heatherdale Road, Heidedal, Free State, South Africa. - 9301",https://www.okfurniture.co.za/heidedal/,Heidedal (5356),https://www.okfurniture.co.za/static/version1726604200/frontend/Smartwave/okf/en_GB/Magedelight_Storepickup/images/image-default.png,Phone no: <a href=
252,-26.502251,28.359558,"Shop 10 Shoprite Centre, Voortrekker street, Heidelberg, Heildeberg, Gauteng, South Africa. - 1441",https://www.okfurniture.co.za/heidelberg/,Heidelberg (9376),https://www.okfurniture.co.za/static/version1726604200/frontend/Smartwave/okf/en_GB/Magedelight_Storepickup/images/image-default.png,Phone no: <a href=
317,-27.284733,27.967733,"39 Pierce Street, Free State, South Africa. - 9650",https://www.okfurniture.co.za/heilbron/,Heilbron (3992),https://www.okfurniture.co.za/static/version1726604200/frontend/Smartwave/okf/en_GB/Magedelight_Storepickup/images/image-default.png,Phone no: <a href=
401,-25.745938,28.192233,"298 Helen Joseph Street, Pretoria, Pretoria, Gauteng, South Africa. - 0001",https://www.okfurniture.co.za/okf-helen-joseph-1/,Helen Joseph OKF (1719),https://www.okfurniture.co.za/static/version1726604200/frontend/Smartwave/okf/en_GB/Magedelight_Storepickup/images/image-default.png,Phone no: <a href=
264,-27.975559,27.02566,"52 Steyn Street, Hennenman, South Africa, South Africa. - 9447",https://www.okfurniture.co.za/hennenman/,Hennenman (9399),https://www.okfurniture.co.za/static/version1726604200/frontend/Smartwave/okf/en_GB/Magedelight_Storepickup/images/image-default.png,Phone no: <a href=
258,-24.354168,30.947222,"PANTHER STR,SHOP 186, HOEDSPRUIT 1380, Hoedspruit, Limpopo, South Africa. - 1380",https://www.okfurniture.co.za/hoedspruit/,Hoedspruit (9392),https://www.okfurniture.co.za/static/version1726604200/frontend/Smartwave/okf/en_GB/Magedelight_Storepickup/images/image-default.png,Phone no: <a href=
6,-34.031235,24.769981,"71 Main Street, Humansdorp, Port Elizabeth, South Africa. - 7300",https://www.okfurniture.co.za/humansdorp/,Humansdorp (5402),https://www.okfurniture.co.za/static/version1726604200/frontend/Smartwave/okf/en_GB/Magedelight_Storepickup/images/image-default.png,Phone no: <a href=
13,-32.095718,28.307064,"Shop 2 Richard Street, Iduytwa, Eastern Cape, South Africa. - 5000",https://www.okfurniture.co.za/iduytwa/,Iduytwa (5491),https://www.okfurniture.co.za/static/version1726604200/frontend/Smartwave/okf/en_GB/Magedelight_Storepickup/images/image-default.png,Phone no: <a href=
406,-29.726,31.9869,"No. L64, Bridge City, Inanda, Kwazulu Natal, South Africa. - 4310",https://www.okfurniture.co.za/inanda-bridge-city-1/,Inanda Bridge City (5700) ,https://www.okfurniture.co.za/static/version1726604200/frontend/Smartwave/okf/en_GB/Magedelight_Storepickup/images/image-default.png,Phone no: <a href=
263,-29.980556,30.932501,"112 Main Road, Isipingo Rail, Isipingo, KZN, South Africa. - 4133",https://www.okfurniture.co.za/isipingo/,Isipingo (6574),https://www.okfurniture.co.za/static/version1726604200/frontend/Smartwave/okf/en_GB/Magedelight_Storepickup/images/image-default.png,Phone no: <a href=
288,-30.152742,30.059225,"Margaret street, Ixopo, KZN, Ixopo, Kwazulu Natal, South Africa. - 3276",https://www.okfurniture.co.za/ixopo/,Ixopo (9383),https://www.okfurniture.co.za/static/version1726604200/frontend/Smartwave/okf/en_GB/Magedelight_Storepickup/images/image-default.png,Phone no: <a href=
128,-26.24984,27.857307,"Shop 2, Jabulani Mall Soweto,Cnr Bolani & Koma Rd, Soweto, Gauteng, South Africa. - 1868",https://www.okfurniture.co.za/jabulani-mall-soweto-temporarily-closed/,Jabulani Mall Soweto (4457),https://www.okfurniture.co.za/static/version1726604200/frontend/Smartwave/okf/en_GB/Magedelight_Storepickup/images/image-default.png,Phone no: <a href=
256,-24.761,29.877001,"Shop 22, Jane Furse Plaza, R579 road, Jane Furse, 1085, Jane Furse, Limpopo, South Africa. - 1085",https://www.okfurniture.co.za/jane-furse/,Jane Furse (9371),https://www.okfurniture.co.za/static/version1726604200/frontend/Smartwave/okf/en_GB/Magedelight_Storepickup/images/image-default.png,Phone no: <a href=
146,-26.887167,26.598316,"Tower Mall ,Cnr Joe Slovo & Jabulani Street , Jouberton, Goldfields, South Africa. - 2499",https://www.okfurniture.co.za/jouberton/,Jouberton (6379),https://www.okfurniture.co.za/static/version1726604200/frontend/Smartwave/okf/en_GB/Magedelight_Storepickup/images/image-default.png,Phone no: <a href=
373,-27.427509,32.070847,"SHOP 3 JOZINI MALL, , MAIN ROAD, , JOZINI, South Africa. - 3935",https://www.okfurniture.co.za/jozini-temporarily-closed/,Jozini (6415),https://www.okfurniture.co.za/static/version1726604200/frontend/Smartwave/okf/en_GB/Magedelight_Storepickup/images/image-default.png,
395,-25.405277,28.269444,"Shop NO 90, Cnr Harry Gwala & Jubilee Road, Hammanskraal, Gauteng, South Africa. - 0407",https://www.okfurniture.co.za/jubilee-mall-6687/,Jubilee Mall (6687),https://www.okfurniture.co.za/static/version1726604200/frontend/Smartwave/okf/en_GB/Magedelight_Storepickup/images/image-default.png,Phone no: <a href=
78,-29.33993,31.29072,"OK Mall, Shop 1,62 Hullet Street, Stanger, Kwazulu Natal, South Africa. - 4450",https://www.okfurniture.co.za/kwa-dukuza-stanger/,KWA DUKUZA (STANGER),https://www.okfurniture.co.za/static/version1726604200/frontend/Smartwave/okf/en_GB/Magedelight_Storepickup/images/image-default.png,Phone no: <a href=
424,-25.342302804615205,31.13397279874406,"Shop 19,Kabokweni Junction, Plaston Road , Kabokweni, Mpumalanga, South Africa. - 1245",https://www.okfurniture.co.za/kabokweni-okf-1/,Kabokweni OKF (4842),https://www.okfurniture.co.za/static/version1726604200/frontend/Smartwave/okf/en_GB/Magedelight_Storepickup/images/image-default.png,Phone no: <a href=
178,-26.181244,27.786051,"Cr Randfontein Rd & Kagiso Rd, Kagiso West Rand, GAUTENG, South Africa. - 1754",https://www.okfurniture.co.za/kagiso/,Kagiso (3314),https://www.okfurniture.co.za/static/version1726604200/frontend/Smartwave/okf/en_GB/Magedelight_Storepickup/images/image-default.png,Phone no: <a href=
273,-28.776106,20.621447,"11TH AVENUE, KAKAMAS, KAKAMAS, SOUTH AFRICA, South Africa. - 8870",https://www.okfurniture.co.za/kakamas/,Kakamas (9369),https://www.okfurniture.co.za/static/version1726604200/frontend/Smartwave/okf/en_GB/Magedelight_Storepickup/images/image-default.png,Phone no: <a href=
394,-27.6963082,23.0465479,"ERF 2783, RIETBOK STREET, KATHU, NORTHERN CAPE, South Africa. - 8446",https://www.okfurniture.co.za/kathu-5103/,Kathu (5103),https://www.okfurniture.co.za/static/version1726604200/frontend/Smartwave/okf/en_GB/Magedelight_Storepickup/images/image-default.png,Phone no: <a href=
188,-26.3333,28.15,"Shop 42F Sam Ntuli Mall, Cnr Khumalo & Masakhane Street, Mngadi Ext 1, Katlehong, Katlehong, South Africa. - 1431",https://www.okfurniture.co.za/katlehong/,Katlehong (4770),https://www.okfurniture.co.za/static/version1726604200/frontend/Smartwave/okf/en_GB/Magedelight_Storepickup/images/image-default.png,Phone no: <a href=
303,-26.330624,28.154255,"Shop 11 Motse Wa Lijane Centre, Cnr Hospital and Moseu streets, Katlehong, Johannesburg, Gauteng, South Africa. - 2000",https://www.okfurniture.co.za/katlehong-pex/,Katlehong Pex  (3388),https://www.okfurniture.co.za/static/version1726604200/frontend/Smartwave/okf/en_GB/Magedelight_Storepickup/images/image-default.png,Phone no: <a href=
279,-25.6688,31.856239,"shop 8-12 Khamaqhekeza plaza, CNR 571 & Tonga, Khamaqhekeza, Khamaqhekeza, Mpumalanga, South Africa. - 1346",https://www.okfurniture.co.za/khamaqhekeza/,Khamaqhekeza (9483),https://www.okfurniture.co.za/static/version1726604200/frontend/Smartwave/okf/en_GB/Magedelight_Storepickup/images/image-default.png,Phone no: <a href=
276,-34.046822,18.70319,"Makhaza Shopping Centre, Cnr Landsdown & Cekeka Roads, Khayelitsha, Western Cape, South Africa. - 7784",https://www.okfurniture.co.za/khayelitsha/,Khayelitsha (6603),https://www.okfurniture.co.za/static/version1726604200/frontend/Smartwave/okf/en_GB/Magedelight_Storepickup/images/image-default.png,Phone no: <a href=
368,-28.75429,24.758551,"Checkers Centre, Bultfontein Road, Kimbereley, South Africa. - 8301",https://www.okfurniture.co.za/kimberley/,Kimberley (6056),https://www.okfurniture.co.za/static/version1726604200/frontend/Smartwave/okf/en_GB/Magedelight_Storepickup/images/image-default.png,Phone no: <a href=
10,-32.879372,27.389856,"Cnr Ayliff & Cambridge Road, King Williams Town, Eastern Cape, South Africa. - 5607",https://www.okfurniture.co.za/king-williams-town/,King Williams Town (9177),https://www.okfurniture.co.za/static/version1726604200/frontend/Smartwave/okf/en_GB/Magedelight_Storepickup/images/image-default.png,Phone no: <a href=
286,-32.878922,27.387783,"9 Walker Street, King Williams Town, South Africa. - 5600",https://www.okfurniture.co.za/king-williams-town-walker-street/,King Williams Town Walker Street (6615),https://www.okfurniture.co.za/static/version1726604200/frontend/Smartwave/okf/en_GB/Magedelight_Storepickup/images/image-default.png,Phone no: <a href=
137,-26.87044,26.665895,"75 Anderson Street, Klerksdorp, Goldfields, South Africa. - 2574",https://www.okfurniture.co.za/klerksdorp/,Klerksdorp (5929),https://www.okfurniture.co.za/static/version1726604200/frontend/Smartwave/okf/en_GB/Magedelight_Storepickup/images/image-default.png,Phone no: <a href=
436,-34.035045969497524,23.045432642076502,"KNYSNA SQUARE , CNR NELSON & ST.GEORGE STREET, KNYSNA, CAPE TOWN, WESTERN CAPE, South Africa. - 6517",https://www.okfurniture.co.za/knysna-1/,Knysna OKF 6993,https://www.okfurniture.co.za/static/version1726604200/frontend/Smartwave/okf/en_GB/Magedelight_Storepickup/images/image-default.png,Phone no: <a href=
83,-30.554279,29.428049,"Shop 10 & 11, Shoprite Centre,Hope Street, Kokstad, Kwazulu Natal, South Africa. - 4700",https://www.okfurniture.co.za/kokstad/,Kokstad (4009),https://www.okfurniture.co.za/static/version1726604200/frontend/Smartwave/okf/en_GB/Magedelight_Storepickup/images/image-default.png,Phone no: <a href=
30,-33.855358,18.725035,"Cnr Voortrekker & Botfontein Road, Kraaifontein, Western Cape, South Africa. - 7570",https://www.okfurniture.co.za/kraaifontein/,Kraaifontein (4132),https://www.okfurniture.co.za/static/version1726604200/frontend/Smartwave/okf/en_GB/Magedelight_Storepickup/images/image-default.png,Phone no: <a href=
261,-26.249201,29.259729,"Shop 57A, Megamark Mall, Bronwyn Street, Kriel, Mpumalanga, South Africa. - 2271",https://www.okfurniture.co.za/kriel/,Kriel (9370),https://www.okfurniture.co.za/static/version1726604200/frontend/Smartwave/okf/en_GB/Magedelight_Storepickup/images/image-default.png,Phone no: <a href=
44,-27.663689,27.235447,"26 Orange Street, Kroonstad, Free State, South Africa. - 9499",https://www.okfurniture.co.za/kroonstad/,Kroonstad (5953),https://www.okfurniture.co.za/static/version1726604200/frontend/Smartwave/okf/en_GB/Magedelight_Storepickup/images/image-default.png,Phone no: <a href=
182,-26.102493,27.771978,"Cnr Monument & Ockerse St, Krugersdorp West Ran, Gauteng, South Africa. - 1740",https://www.okfurniture.co.za/krugersdorp/,Krugersdorp (7793),https://www.okfurniture.co.za/static/version1726604200/frontend/Smartwave/okf/en_GB/Magedelight_Storepickup/images/image-default.png,Phone no: <a href=
22,-33.904686,18.591953,"Shop 108, Zevenwacht Mall, Voortrekker Road, Kuilsriver, Western Cape, South Africa. - 7580",https://www.okfurniture.co.za/kuilsriver/,Kuilsriver (5772),https://www.okfurniture.co.za/static/version1726604200/frontend/Smartwave/okf/en_GB/Magedelight_Storepickup/images/image-default.png,Phone no: <a href=
147,-27.460091,23.435509,"12-14 Livingston Street, Kuruman, Goldfields 2, South Africa. - 8460",https://www.okfurniture.co.za/kuruman/,Kuruman (4338),https://www.okfurniture.co.za/static/version1726604200/frontend/Smartwave/okf/en_GB/Magedelight_Storepickup/images/image-default.png,Phone no: <a href=
228,-25.872271,29.13106,"Mathews Phosa Street, Kwa Guqa, Mpumalanga, Kwa Guqa, South Africa, South Africa. - 1073",https://www.okfurniture.co.za/kwa-guqa/,Kwa Guqa (8085),https://www.okfurniture.co.za/static/version1726604200/frontend/Smartwave/okf/en_GB/Magedelight_Storepickup/images/image-default.png,Phone no: <a href=
354,-25.312153,28.941229,"Shop 87, Kwagga Plaza, Kwaggafontein, South Africa. - 450",https://www.okfurniture.co.za/kwaggafontein/,Kwaggafontein (8503),https://www.okfurniture.co.za/static/version1726604200/frontend/Smartwave/okf/en_GB/Magedelight_Storepickup/images/image-default.png,Phone no: <a href=
49,-29.192419,27.458321,"22A Voortrekker Street, Ladybrand, Free State, South Africa. - 9745",https://www.okfurniture.co.za/ladybrand/,Ladybrand (5979),https://www.okfurniture.co.za/static/version1726604200/frontend/Smartwave/okf/en_GB/Magedelight_Storepickup/images/image-default.png,Phone no: <a href=
67,-28.560341,29.783119,"c/o Lyle & Alexander street, Ladysmith, Kwazulu Natal, South Africa. - 3370",https://www.okfurniture.co.za/ladysmith/,Ladysmith (8650),https://www.okfurniture.co.za/static/version1726604200/frontend/Smartwave/okf/en_GB/Magedelight_Storepickup/images/image-default.png,Phone no: <a href=
223,-24.323341,29.479401,"Cnr Zedediel & Janefurse Streets, Lebowakgomo, Limpopo, South Africa. - 731",https://www.okfurniture.co.za/lebowakgomo/,Lebowakgomo (4433),https://www.okfurniture.co.za/static/version1726604200/frontend/Smartwave/okf/en_GB/Magedelight_Storepickup/images/image-default.png,Phone no: <a href=
233,-24.314722,29.478611,"Mall @ Lebo,Shop 30, Jane Furse Str, Polokwane, Limpopo, South Africa. - 737",https://www.okfurniture.co.za/lebowakgomo-2/,Lebowakgomo 2 (6390),https://www.okfurniture.co.za/static/version1726604200/frontend/Smartwave/okf/en_GB/Magedelight_Storepickup/images/image-default.png,Phone no: <a href=
222,-23.670288,27.742746,"Cnr Hendrik and Strydom Streets, Lephalale, Limpopo, South Africa. - 555",https://www.okfurniture.co.za/lephalale-ellisras/,Lephalale Ellisras (5864) ,https://www.okfurniture.co.za/static/version1726604200/frontend/Smartwave/okf/en_GB/Magedelight_Storepickup/images/image-default.png,Phone no: <a href=
142,-26.149052,26.164146,"17 Gerrit Maritz Street, Lichtenburg, Goldfields, South Africa. - 2740",https://www.okfurniture.co.za/lichtenburg/,Lichtenburg (6137),https://www.okfurniture.co.za/static/version1726604200/frontend/Smartwave/okf/en_GB/Magedelight_Storepickup/images/image-default.png,Phone no: <a href=
313,-25.093451,30.451927,"54 Kantoor Street, Lydenburg, Mpumalanga, South Africa. - 1120",https://www.okfurniture.co.za/lydenburg-cbd/,Lydenburg (5982),https://www.okfurniture.co.za/static/version1726604200/frontend/Smartwave/okf/en_GB/Magedelight_Storepickup/images/image-default.png,Phone no: <a href=
198,-23.977537,30.288849,"Cnr Lydenburg Road & Ramalema Str, Maake Plaza, Limpopo, South Africa. - 857",https://www.okfurniture.co.za/maake-plaza/,Maake Plaza (5358),https://www.okfurniture.co.za/static/version1726604200/frontend/Smartwave/okf/en_GB/Magedelight_Storepickup/images/image-default.png,Phone no: <a href=
212,-25.51136,28.057049,"Opp Mabopane Station, Mabopane, Pretoria, South Africa. - 290",https://www.okfurniture.co.za/mabopane/,Mabopane (9656),https://www.okfurniture.co.za/static/version1726604200/frontend/Smartwave/okf/en_GB/Magedelight_Storepickup/images/image-default.png,Phone no: <a href=
151,-25.865049,25.646111,"Shop 6,Shason Centre ,43 Shepard Street , Mafikeng, Goldfields 2, South Africa. - 2745",https://www.okfurniture.co.za/mafikeng/,Mafikeng (9402),https://www.okfurniture.co.za/static/version1726604200/frontend/Smartwave/okf/en_GB/Magedelight_Storepickup/images/image-default.png,Phone no: <a href=
204,-23.039148,29.90962,"105 Burger Street, Louis Trichardt, Limpopo, South Africa. - 939",https://www.okfurniture.co.za/makhado/,Makhado (5741),https://www.okfurniture.co.za/static/version1726604200/frontend/Smartwave/okf/en_GB/Magedelight_Storepickup/images/image-default.png,Phone no: <a href=
196,-22.998693,30.692797,"Shop 23, Mangalani Complex, Malamulele, Limpopo, South Africa. - 982",https://www.okfurniture.co.za/malamulele/,Malamulele (4677),https://www.okfurniture.co.za/static/version1726604200/frontend/Smartwave/okf/en_GB/Magedelight_Storepickup/images/image-default.png,Phone no: <a href=
96,-25.4988091,31.5091106,"Ingwe Centre, Shop 1, Impala Street, Malelane, Mpumalanga, South Africa. - 1420",https://www.okfurniture.co.za/malelane/,Malelane (4052),https://www.okfurniture.co.za/static/version1726604200/frontend/Smartwave/okf/en_GB/Magedelight_Storepickup/images/image-default.png,Phone no: <a href=
27,-33.461449,18.730312,"8 Piet Retief Street, Malmesbury, Western Cape, South Africa. - 7300",https://www.okfurniture.co.za/malmesbury/,Malmesbury (8105),https://www.okfurniture.co.za/static/version1726604200/frontend/Smartwave/okf/en_GB/Magedelight_Storepickup/images/image-default.png,Phone no: <a href=
398,-23.372041,30.207853,"Shop No.9, Mamaila Mall, Zeekfontein Farm, Limpopo, South Africa. - 0813",https://www.okfurniture.co.za/mamaila-okf/,Mamaila OKF (1694 ),https://www.okfurniture.co.za/static/version1726604200/frontend/Smartwave/okf/en_GB/Magedelight_Storepickup/images/image-default.png,Phone no: <a href=
218,-25.705917,28.354828,"Shop 5 Mahube Valley, Mamelodi, Pretoria, South Africa. - 122",https://www.okfurniture.co.za/mamelodi-2-mahube-max-city-temporarily-closed/,Mamelodi 2  Manhube Max City (3125),https://www.okfurniture.co.za/static/version1726604200/frontend/Smartwave/okf/en_GB/Magedelight_Storepickup/images/image-default.png,Phone no: <a href=
213,-25.7164,28.330631,"Cnr Wattloo & Stormvoel Streets, Mamelodi Crossing, Pretoria, South Africa. - 122",https://www.okfurniture.co.za/mamelodi-crossing/,Mamelodi Crossing (4348),https://www.okfurniture.co.za/static/version1726604200/frontend/Smartwave/okf/en_GB/Magedelight_Storepickup/images/image-default.png,Phone no: <a href=
38,-29.174646,26.239471,"Shop P, Rocklands Shopping Centre,Cnr Moshoeshoe & Motlohu Rd, Mangaung, Free State, South Africa. - 9323",https://www.okfurniture.co.za/mangaung/,Mangaung (4794),https://www.okfurniture.co.za/static/version1726604200/frontend/Smartwave/okf/en_GB/Magedelight_Storepickup/images/image-default.png,Phone no: <a href=
327,-27.0002374,32.7576589,"Shop 4, Kwangwanase Shopping Centre , Cnr Main and Hospital Roads , Manguzi, Kwazulu Natal, South Africa. - 3973",https://www.okfurniture.co.za/manguzi/,Manguzi (6903),https://www.okfurniture.co.za/static/version1726604200/frontend/Smartwave/okf/en_GB/Magedelight_Storepickup/images/image-default.png,Phone no: <a href=
220,-23.88262,29.717159,"University Road, Mankweng, Limpopo, South Africa. - 727",https://www.okfurniture.co.za/mankweng/,Mankweng (4757),https://www.okfurniture.co.za/static/version1726604200/frontend/Smartwave/okf/en_GB/Magedelight_Storepickup/images/image-default.png,Phone no: <a href=
240,-23.890278,29.685556,"Shop 51, Paledi Mall, Turfloop Township, Mankweng, MANKWENG, South Africa, South Africa. - 727",https://www.okfurniture.co.za/mankweng-paledi-mall/,Mankweng Paledi Mall (9097),https://www.okfurniture.co.za/static/version1726604200/frontend/Smartwave/okf/en_GB/Magedelight_Storepickup/images/image-default.png,Phone no: <a href=
226,-24.870293,29.75,"Erf 908, Main Road, Marble Hall , Marble Hall, South Africa, South Africa. - 450",https://www.okfurniture.co.za/marble-hall/,Marble Hall (8119),https://www.okfurniture.co.za/static/version1726604200/frontend/Smartwave/okf/en_GB/Magedelight_Storepickup/images/image-default.png,Phone no: <a href=
84,-30.863899,30.36125,"Hibiscus Mall, c/o Watski & Windsor Avenue, Margate, Kwazulu Natal, South Africa. - 4274",https://www.okfurniture.co.za/margate/,Margate (8333),https://www.okfurniture.co.za/static/version1726604200/frontend/Smartwave/okf/en_GB/Magedelight_Storepickup/images/image-default.png,Phone no: <a href=
184,-26.675646,27.926996,"Beaconsfield avenue, Vereeniging, Vaal triangle, South Africa. - 1939",https://www.okfurniture.co.za/mark-park/,Mark Park (7866),https://www.okfurniture.co.za/static/version1726604200/frontend/Smartwave/okf/en_GB/Magedelight_Storepickup/images/image-default.png,Phone no: <a href=
82,-30.34013,28.810141,"A7 Building, Shop 9 ,c/o Pope Lane & Long Street, Matatiele, Kwazulu Natal, South Africa. - 4730",https://www.okfurniture.co.za/matatiele/,Matatiele (4797),https://www.okfurniture.co.za/static/version1726604200/frontend/Smartwave/okf/en_GB/Magedelight_Storepickup/images/image-default.png,Phone no: <a href=
11,-32.935307,27.73966,"Mdantsane City Mall, 4 Zuma Road, Mdantsane, Eastern Cape, South Africa. - 5219",https://www.okfurniture.co.za/mdantsane/,Mdantsane (5217),https://www.okfurniture.co.za/static/version1726604200/frontend/Smartwave/okf/en_GB/Magedelight_Storepickup/images/image-default.png,Phone no: <a href=
393,-28.589542,31.397005,"Shop no 8 Melmoth Shopping Centre, Erf 1145, 10 Opposition Road, , Kwazulu Natal, South Africa. - 3835",https://www.okfurniture.co.za/melmoth-7862/,Melmoth (7862),https://www.okfurniture.co.za/static/version1726604200/frontend/Smartwave/okf/en_GB/Magedelight_Storepickup/images/image-default.png,Phone no: <a href=
272,-26.55938,28.015909,"27 Loch Street, Meyerton , Meyerton, GAUTENG, South Africa. - 1961",https://www.okfurniture.co.za/meyerton/,Meyerton (9466),https://www.okfurniture.co.za/static/version1726604200/frontend/Smartwave/okf/en_GB/Magedelight_Storepickup/images/image-default.png,Phone no: <a href=
399,-25.767017,29.459431,"Cnr Coetzee & Sadc Street, Mpumalanga, Middelburg, South Africa. - 1050",https://www.okfurniture.co.za/middelburg-2/,Middelburg (5686),https://www.okfurniture.co.za/static/version1726604200/frontend/Smartwave/okf/en_GB/Magedelight_Storepickup/images/image-default.png,Phone no: <a href=
387,-32.2968402,26.419389,"Erven 571, 572, 573, Middelburg, Eastern Cape, South Africa. - 5900",https://www.okfurniture.co.za/middelburg-1/,Middelburg (7164),https://www.okfurniture.co.za/static/version1726604200/frontend/Smartwave/okf/en_GB/Magedelight_Storepickup/images/image-default.png,Phone no: <a href=
24,-33.902763,18.628389,"Cnr Kruskal & Church Street, Bellville, Western Cape, South Africa. - 7530",https://www.okfurniture.co.za/middestad/,Middestad (8163),https://www.okfurniture.co.za/static/version1726604200/frontend/Smartwave/okf/en_GB/Magedelight_Storepickup/images/image-default.png,Phone no: <a href=
375,-25.997965,28.126427,"SHOP 17 , MIDRAND CITY , 185 OLD PRETORIA RD, South Africa. - 1682",https://www.okfurniture.co.za/midrand/,Midrand (5908),https://www.okfurniture.co.za/static/version1726604200/frontend/Smartwave/okf/en_GB/Magedelight_Storepickup/images/image-default.png,Phone no: <a href=
445,-29.7384616,30.9345417,"Shop No.67 Midway Crossing, 5 Ntuzuma Main Road, Durban, KwaZulu Natal, South Africa. - 4037",https://www.okfurniture.co.za/midway-crossing-okf-1/,Midway Crossing OKF (7122),https://www.okfurniture.co.za/static/version1726604200/frontend/Smartwave/okf/en_GB/Magedelight_Storepickup/images/image-default.png,Phone no: <a href=
20,-34.049603,18.620644,"Town Centre, 1 Melody Walk, Mitchells Plain, Western Cape, South Africa. - 7798",https://www.okfurniture.co.za/mitchells-plain/,Mitchells Plain (8139),https://www.okfurniture.co.za/static/version1726604200/frontend/Smartwave/okf/en_GB/Magedelight_Storepickup/images/image-default.png,Phone no: <a href=
250,-34.025723,18.578119,"Shop 1 Westgate Mall, Cnr Vanguard drive and Morgenster Street, Mitchells Plain, South Africa, South Africa. - 7785",https://www.okfurniture.co.za/mitchells-plain-westgate-mall/,Mitchells Plain Westgate Mall (9361),https://www.okfurniture.co.za/static/version1726604200/frontend/Smartwave/okf/en_GB/Magedelight_Storepickup/images/image-default.png,Phone no: <a href=
149,-25.83408,25.61484,"Shop 56, Mmabatho, Goldfields 2, South Africa. - 2735",https://www.okfurniture.co.za/mmabatho/,Mmabatho (6098),https://www.okfurniture.co.za/static/version1726604200/frontend/Smartwave/okf/en_GB/Magedelight_Storepickup/images/image-default.png,Phone no: <a href=
366,-24.699409,28.406521,"SHOP NO 1 , 18 NELSON MANDELA DRIVE , MODIMOLLE, South Africa. - 6417",https://www.okfurniture.co.za/modimolle-2/,Modimolle 2 (6417),https://www.okfurniture.co.za/static/version1726604200/frontend/Smartwave/okf/en_GB/Magedelight_Storepickup/images/image-default.png,Phone no: <a href=
200,-23.64934,30.217102,"Ga-Kgapane Road, Ga-Kgapane, Limpopo, South Africa. - 838",https://www.okfurniture.co.za/modjadji-plaza/,Modjadji Plaza (6348),https://www.okfurniture.co.za/static/version1726604200/frontend/Smartwave/okf/en_GB/Magedelight_Storepickup/images/image-default.png,Phone no: <a href=
135,-25.274426,27.236868,"Mogwase Shopping Cnt, Shoprite Building, Mogwase, North West, South Africa. - 314",https://www.okfurniture.co.za/mogwase/,Mogwase (9672),https://www.okfurniture.co.za/static/version1726604200/frontend/Smartwave/okf/en_GB/Magedelight_Storepickup/images/image-default.png,Phone no: <a href=
99,-24.195242,29.004122,"Cnr Nelson Mandela Drive & Pretorius Street, Mokopane, Limpopo, South Africa. - 600",https://www.okfurniture.co.za/mokopane/,Mokopane (5791),https://www.okfurniture.co.za/static/version1726604200/frontend/Smartwave/okf/en_GB/Magedelight_Storepickup/images/image-default.png,Phone no: <a href=
430,-25.00667,29.74611,"Shop 20,Moratiwa Crossing Portion 5, The farm Klipspruit , Monsterlus, Limpopo, South Africa. - 1057",https://www.okfurniture.co.za/monsterlus-1/,Monsterlus (4777),https://www.okfurniture.co.za/static/version1726604200/frontend/Smartwave/okf/en_GB/Magedelight_Storepickup/images/image-default.png,Phone no: <a href=
392,-24.51863,28.71486,"Shop no 2, Auto Zone Building, 70 Thabo Mbeki Stree, Limpopo, South Africa. - 560",https://www.okfurniture.co.za/mookgophong/,Mookgophong (6601),https://www.okfurniture.co.za/static/version1726604200/frontend/Smartwave/okf/en_GB/Magedelight_Storepickup/images/image-default.png,Phone no: <a href=
136,-25.16395,27.16881,"Shop 2 Moruleng Mall, Moruleng, North West, South Africa. - 316",https://www.okfurniture.co.za/moruleng/,Moruleng (5522),https://www.okfurniture.co.za/static/version1726604200/frontend/Smartwave/okf/en_GB/Magedelight_Storepickup/images/image-default.png,Phone no: <a href=
4,-33.810886,25.594666,"No 1, Motherwell Centre, Nyara- Tyhinira and WM Makutu Street, Motherwell, Port Elizabeth, South Africa. - 6211",https://www.okfurniture.co.za/motherwell/,Motherwell (5472),https://www.okfurniture.co.za/static/version1726604200/frontend/Smartwave/okf/en_GB/Magedelight_Storepickup/images/image-default.png,Phone no: <a href=
324,-30.800484,29.364483,"Shop 3 ERF 193 Mount Ayliff, Eastern Cape, Mount Ayliff, South Africa. - 4735",https://www.okfurniture.co.za/mount-ayliff/,Mount Ayliff (6889),https://www.okfurniture.co.za/static/version1726604200/frontend/Smartwave/okf/en_GB/Magedelight_Storepickup/images/image-default.png,Phone no: <a href=
87,-30.909655,28.990482,"Shop 2, Mt. Frere Mall, Mt. Frere, Kwazulu Natal, South Africa. - 5090",https://www.okfurniture.co.za/mount-frere/,Mount Fere (3004),https://www.okfurniture.co.za/static/version1726604200/frontend/Smartwave/okf/en_GB/Magedelight_Storepickup/images/image-default.png,Phone no: <a href=
229,-31.828346,28.759016,"Main Road, Mqanduli, Mqanduli, South Africa, South Africa. - 5080",https://www.okfurniture.co.za/mqanduli/,Mqanduli (6382),https://www.okfurniture.co.za/static/version1726604200/frontend/Smartwave/okf/en_GB/Magedelight_Storepickup/images/image-default.png,Phone no: <a href=
390,-31.5938684,28.7873774,"SHOP NO. 23D , NELSON MANDELA DRIVE , MTHATHA PLAZA, South Africa. - 5099",https://www.okfurniture.co.za/mthatha-plaza/,Mthatha Plaza (6927),https://www.okfurniture.co.za/static/version1726604200/frontend/Smartwave/okf/en_GB/Magedelight_Storepickup/images/image-default.png,Phone no: <a href=
225,-28.405933,32.214333,"SHOP NO 5, MTUBATUBA MALL, MTUBATUBA, KWAZULU NATAL, South Africa. - 3935",https://www.okfurniture.co.za/mtubatuba/,Mtubatuba (3005),https://www.okfurniture.co.za/static/version1726604200/frontend/Smartwave/okf/en_GB/Magedelight_Storepickup/images/image-default.png,Phone no: <a href=
340,-22.744526,30.531767,"Shop No 4, Tshilamba Shopping Centre, Limpopo , Mutale, South Africa. - 956",https://www.okfurniture.co.za/mutale/,Mutale (8955),https://www.okfurniture.co.za/static/version1726604200/frontend/Smartwave/okf/en_GB/Magedelight_Storepickup/images/image-default.png,Phone no: <a href=
91,-25.469683,30.976978,"26 Bester Street, Nelspruit, Mpumalanga, South Africa. - 1200",https://www.okfurniture.co.za/nelspruit/,Nelspruit (5733),https://www.okfurniture.co.za/static/version1726604200/frontend/Smartwave/okf/en_GB/Magedelight_Storepickup/images/image-default.png,Phone no: <a href=
7,-33.899841,25.569035,"Kenako Shopping Centre, Shop 12,Cnr Uitenhage Rd & Spondo Street, New Brighton, Port Elizabeth, South Africa. - 6001",https://www.okfurniture.co.za/new-brighton/,New Brighton (3007),https://www.okfurniture.co.za/static/version1726604200/frontend/Smartwave/okf/en_GB/Magedelight_Storepickup/images/image-default.png,Phone no: <a href=
70,-27.757435,29.934446,"50 Harding Street, Newcastle, Kwazulu Natal, South Africa. - 2940",https://www.okfurniture.co.za/newcastle-1/,Newcastle 1 (8341),https://www.okfurniture.co.za/static/version1726604200/frontend/Smartwave/okf/en_GB/Magedelight_Storepickup/images/image-default.png,Phone no: <a href=
361,-31.6727543,27.9834738,"4469, Main Street, Ngcobo, Ngcobo, South Africa. - 5050",https://www.okfurniture.co.za/ngcobo-1/,Ngcobo,https://www.okfurniture.co.za/static/version1726604200/frontend/Smartwave/okf/en_GB/Magedelight_Storepickup/images/image-default.png,
360,-31.6727543,27.9834738,"4469, Main Street, Ngcobo, Ngcobo, South Africa. - 5050",https://www.okfurniture.co.za/ngcobo/,Ngcobo (8610),https://www.okfurniture.co.za/static/version1726604200/frontend/Smartwave/okf/en_GB/Magedelight_Storepickup/images/image-default.png,Phone no: <a href=
194,-26.417402,28.467579,"Cnr Hendrik Verwoerd & 1St Str, Nigel, Nigel, South Africa. - 1490",https://www.okfurniture.co.za/nigel/,Nigel (5490),https://www.okfurniture.co.za/static/version1726604200/frontend/Smartwave/okf/en_GB/Magedelight_Storepickup/images/image-default.png,Phone no: <a href=
410,-23.211489101645302,30.309771624476905,"Shop No. 41, Nkuna Kraal Mall, R578 , Nkuzana, Limpopo, South Africa. - 0933",https://www.okfurniture.co.za/nkuna-kraal-okf-1/,Nkuna Kraal OKF (7935),https://www.okfurniture.co.za/static/version1726604200/frontend/Smartwave/okf/en_GB/Magedelight_Storepickup/images/image-default.png,Phone no: <a href=
66,-27.926491,31.64678,"Nongoma Shopping Centre, Nongoma, Kwazulu Natal, South Africa. - 3950",https://www.okfurniture.co.za/nongoma/,Nongoma (5216),https://www.okfurniture.co.za/static/version1726604200/frontend/Smartwave/okf/en_GB/Magedelight_Storepickup/images/image-default.png,Phone no: <a href=
133,-24.95603,27.2586,"Northam Shopping Centre, Shop No 4 , Northam, North West, South Africa. - 360",https://www.okfurniture.co.za/northam/,Northam (4456),https://www.okfurniture.co.za/static/version1726604200/frontend/Smartwave/okf/en_GB/Magedelight_Storepickup/images/image-default.png,Phone no: <a href=
72,-28.212811,30.669538,"Shop 24, Nquthu Plaza,Manzolwandle Drive, Nqutu, Kwazulu Natal, South Africa. - 3135",https://www.okfurniture.co.za/nqutu/,Nqutu (4843),https://www.okfurniture.co.za/static/version1726604200/frontend/Smartwave/okf/en_GB/Magedelight_Storepickup/images/image-default.png,Phone no: <a href=
442,-25.167409289714893,29.40248640324356,"Shop No.48, Groblersdal Mall, Van Riebeeck Street, Groblersdal, Limpopo, South Africa. - 0470",https://www.okfurniture.co.za/groblersdal-okf-1/,OKF Groblersdal (4012),https://www.okfurniture.co.za/static/version1726604200/frontend/Smartwave/okf/en_GB/Magedelight_Storepickup/images/image-default.png,Phone no: <a href=
419,-30.529135532421456,27.375325710457826,"Shop No.1 Pakkies Plaza, Main Street Sterkspruit, Sterkspruit, Eastern Cape, South Africa. - 9762",https://www.okfurniture.co.za/sterkpruit-okf-1/,OKF Sterkspruit (3758),https://www.okfurniture.co.za/static/version1726604200/frontend/Smartwave/okf/en_GB/Magedelight_Storepickup/images/image-default.png,Phone no: <a href=
408,-27.562963,24.7466064,"Shop 1-4, Taung Forum Shopping Centre, Station Road, Taung, Taung, North West, South Africa. - 8584",https://www.okfurniture.co.za/okf-taung-1/,OKF Taung (4454),https://www.okfurniture.co.za/static/version1726604200/frontend/Smartwave/okf/en_GB/Magedelight_Storepickup/images/image-default.png,Phone no: <a href=
440,-26.7091563,27.8155191,"Shop 55, Bedworth Centre, Ascot On Vaal Street, Vanderbijlpark, Gauteng, South Africa. - 1911",https://www.okfurniture.co.za/vanderbijlpark-okf-1/,OKF Vanderbijlpark (7840),https://www.okfurniture.co.za/static/version1726604200/frontend/Smartwave/okf/en_GB/Magedelight_Storepickup/images/image-default.png,Phone no: <a href=
236,-27.875223,26.684217,"61 Waterkant Street, ODENDAALSRUS, Free State, South Africa. - 9840",https://www.okfurniture.co.za/odendaalsrus/,Odendaalsrus (8953),https://www.okfurniture.co.za/static/version1726604200/frontend/Smartwave/okf/en_GB/Magedelight_Storepickup/images/image-default.png,Phone no: <a href=
108,-25.92436,28.09771,"Shop 27 Olievenhout Plaza,Cnr R55 & Jakalasi Street, Olievenhoutbosch, Centurion, South Africa. - 187",https://www.okfurniture.co.za/olievenhoutbosch/,Olievenhoutbosch (3855),https://www.okfurniture.co.za/static/version1726604200/frontend/Smartwave/okf/en_GB/Magedelight_Storepickup/images/image-default.png,Phone no: <a href=
239,-26.470831,27.869431,"Shop U32 , 124th Street , Orange Farm , Ext 2, Orange Farm, Gauteng, South Africa. - 1841",https://www.okfurniture.co.za/orange-farm/,Orange Farm (9093),https://www.okfurniture.co.za/static/version1726604200/frontend/Smartwave/okf/en_GB/Magedelight_Storepickup/images/image-default.png,Phone no: <a href=
140,-26.87044,26.665895,"60 Milton Avenue, Orkney, Goldfields, South Africa. - 2619",https://www.okfurniture.co.za/orkney/,Orkney (5898),https://www.okfurniture.co.za/static/version1726604200/frontend/Smartwave/okf/en_GB/Magedelight_Storepickup/images/image-default.png,Phone no: <a href=
432,-27.7858,30.09079,"Shop 8, Theku Plaza, Blaauwbosch Road, Osizweni, Newcastle, Kwazulu Natal, South Africa. - 3952",https://www.okfurniture.co.za/osizweni-1/,Osizweni (3848),https://www.okfurniture.co.za/static/version1726604200/frontend/Smartwave/okf/en_GB/Magedelight_Storepickup/images/image-default.png,Phone no: <a href=
421,-33.58974187005785,22.205699509726866,"108 Hoog Street, Oudtshoorn, Oudtshoorn, Western Cape, South Africa. - 6625",https://www.okfurniture.co.za/oudtshoorn-okf-1/,Oudtshoorn OKF (5653),https://www.okfurniture.co.za/static/version1726604200/frontend/Smartwave/okf/en_GB/Magedelight_Storepickup/images/image-default.png,Phone no: <a href=
33,-33.870094,18.710915,"S/33, Shoprite Centre, Cnr Bergrivier & VD Lingen Street, Paarl, Western Cape, South Africa. - 7646",https://www.okfurniture.co.za/paarl/,Paarl (8202),https://www.okfurniture.co.za/static/version1726604200/frontend/Smartwave/okf/en_GB/Magedelight_Storepickup/images/image-default.png,Phone no: <a href=
186,-26.875271,26.601427,"Sig Falcam street, Palm springs, Vaal triangle, South Africa. - 1841",https://www.okfurniture.co.za/palm-springs/,Palm Springs (4769),https://www.okfurniture.co.za/static/version1726604200/frontend/Smartwave/okf/en_GB/Magedelight_Storepickup/images/image-default.png,Phone no: <a href=
31,-33.904617,18.593746,"31B Shoprite Park, Voortrekker Road, Parow, Western Cape, South Africa. - 7500",https://www.okfurniture.co.za/parow/,Parow (4347),https://www.okfurniture.co.za/static/version1726604200/frontend/Smartwave/okf/en_GB/Magedelight_Storepickup/images/image-default.png,Phone no: <a href=
42,-26.899984,27.457893,"Cnr Phillip & Oranje Street, Parys, Free State, South Africa. - 9585",https://www.okfurniture.co.za/parys/,Parys (5315),https://www.okfurniture.co.za/static/version1726604200/frontend/Smartwave/okf/en_GB/Magedelight_Storepickup/images/image-default.png,Phone no: <a href=
376,-27.425737,30.818671,"The palm Shopping Center, Cnr Hoog & Kerk Street, Paulpietersburg, South Africa. - 3180",https://www.okfurniture.co.za/paulpietersburg/,Paulpietersburg (7070),https://www.okfurniture.co.za/static/version1726604200/frontend/Smartwave/okf/en_GB/Magedelight_Storepickup/images/image-default.png,Phone no: <a href=
207,-23.950489,31.13534,"Lantana Street, Phalaborwa, Limpopo, South Africa. - 1390",https://www.okfurniture.co.za/phalaborwa/,Phalaborwa (5856),https://www.okfurniture.co.za/static/version1726604200/frontend/Smartwave/okf/en_GB/Magedelight_Storepickup/images/image-default.png,Phone no: <a href=
355,-34.001846,18.590714,"Shop 20, The Junxion Mall, Cnr New Eisleben & Govan Mbeki Road, Philippi, Cape Town, South Africa. - 7750",https://www.okfurniture.co.za/philippi/,Philippi (8451),https://www.okfurniture.co.za/static/version1726604200/frontend/Smartwave/okf/en_GB/Magedelight_Storepickup/images/image-default.png,Phone no: <a href=
337,-25.403179,28.771748,"Phola Park Mall, Shop 27, Kwa Mhlanga, Mpumalanga, Kwa Mhlanga, Mpumalanga, South Africa. - 1120",https://www.okfurniture.co.za/phola-park/,Phola Park (3533),https://www.okfurniture.co.za/static/version1726604200/frontend/Smartwave/okf/en_GB/Magedelight_Storepickup/images/image-default.png,Phone no: <a href=
51,-28.533861,28.819885,"Cnr Setsai and Motuang Street, Phuthadijhaba, Free State, South Africa. - 9866",https://www.okfurniture.co.za/phuthaditjhaba/,Phuthaditjhaba (4840),https://www.okfurniture.co.za/static/version1726604200/frontend/Smartwave/okf/en_GB/Magedelight_Storepickup/images/image-default.png,Phone no: <a href=
2,-33.982159,25.579506,"133, Pier 14 Shop C, 44 Govan Mbeki Avenue, North End, North End, Port Elizabeth, South Africa. - 6001",https://www.okfurniture.co.za/pier-14/,Pier 14 (4648),https://www.okfurniture.co.za/static/version1726604200/frontend/Smartwave/okf/en_GB/Magedelight_Storepickup/images/image-default.png,Phone no: <a href=
446,-27.0076361,30.8064222,"Lifestyle Centre, Shop 3B, 50 Pretorius Street, Piet Retief, Mpumalanga, South Africa. - 2380",https://www.okfurniture.co.za/piet-retief-1/,Piet Retief (4017),https://www.okfurniture.co.za/static/version1726604200/frontend/Smartwave/okf/en_GB/Magedelight_Storepickup/images/image-default.png,Phone no: <a href=
370,-29.81671,30.85976,"17 KINGS ROAD, , PINECREST MALL,, PINETOWN, South Africa. - 3610",https://www.okfurniture.co.za/pinetwon-temporarily-closed/,Pinetown (9062),https://www.okfurniture.co.za/static/version1726604200/frontend/Smartwave/okf/en_GB/Magedelight_Storepickup/images/image-default.png,
76,-29.598591,30.381929,"Symons Centre,341 Church Street, Pietermaritzburg, Kwazulu Natal, South Africa. - 3201",https://www.okfurniture.co.za/pmb-2/,Pmb 2 (8684),https://www.okfurniture.co.za/static/version1726604200/frontend/Smartwave/okf/en_GB/Magedelight_Storepickup/images/image-default.png,Phone no: <a href=
221,-23.871237,29.465025,"64 Landros Maree Street, Pietersburg, Limpopo, South Africa. - 700",https://www.okfurniture.co.za/polokwane-pietersburg/,Polokwane  Pietersburg (5783) ,https://www.okfurniture.co.za/static/version1726604200/frontend/Smartwave/okf/en_GB/Magedelight_Storepickup/images/image-default.png,Phone no: <a href=
268,-27.37845,31.611712,"Shop 45 - 48, Pongola Shopping cnr Jan Mielie and Naude Str, Pongola , Pongola, ZA, South Africa. - 3170",https://www.okfurniture.co.za/pongola/,Pongola (6648),https://www.okfurniture.co.za/static/version1726604200/frontend/Smartwave/okf/en_GB/Magedelight_Storepickup/images/image-default.png,Phone no: <a href=
235,-33.591167,26.8855,"52 Van Der Reit Street, Port Alfred, Eastern Cape, Port Alfred, South Africa, South Africa. - 6220",https://www.okfurniture.co.za/port-alfred/,Port Alfred (8947),https://www.okfurniture.co.za/static/version1726604200/frontend/Smartwave/okf/en_GB/Magedelight_Storepickup/images/image-default.png,Phone no: <a href=
81,-29.857849,31.023924,"4 Dick King Road, Port Shepstone, Kwazulu Natal, South Africa. - 4240",https://www.okfurniture.co.za/port-shepstone/,Port Shepstone (8676),https://www.okfurniture.co.za/static/version1726604200/frontend/Smartwave/okf/en_GB/Magedelight_Storepickup/images/image-default.png,Phone no: <a href=
251,-31.621624,29.542471,"Erf 906, 63 Bridge Street, Port St Johns, Eastern Cape, South Africa. - 5120",https://www.okfurniture.co.za/port-st-johns/,Port St Johns (9401),https://www.okfurniture.co.za/static/version1726604200/frontend/Smartwave/okf/en_GB/Magedelight_Storepickup/images/image-default.png,Phone no: <a href=
314,-28.332533,23.063999,"Shop 11 Hoog Street, Postmasburg, Northern Cape, Northern Cape, South Africa. - 8420",https://www.okfurniture.co.za/postmasburg/,Postmasburg (3391),https://www.okfurniture.co.za/static/version1726604200/frontend/Smartwave/okf/en_GB/Magedelight_Storepickup/images/image-default.png,Phone no: <a href=
141,-26.711063,27.097071,"117 Church Street, Potchefstroom, North West, South Africa. - 2531",https://www.okfurniture.co.za/potchefstroom/,Potchefstroom (5880),https://www.okfurniture.co.za/static/version1726604200/frontend/Smartwave/okf/en_GB/Magedelight_Storepickup/images/image-default.png,Phone no: <a href=
130,-26.27651,27.81254,"Cnr Protea Boulevard & R558, Soweto, Soweto, South Africa. - 993",https://www.okfurniture.co.za/soweto-protea-glen/,Protea Glen Soweto (5418),https://www.okfurniture.co.za/static/version1726604200/frontend/Smartwave/okf/en_GB/Magedelight_Storepickup/images/image-default.png,Phone no: <a href=
215,-25.747158,28.148127,"Zone 15, Cnr Quagga & Church Streets, Pretoria West, Pretoria, South Africa. - 183",https://www.okfurniture.co.za/quagga/,Quagga (6187),https://www.okfurniture.co.za/static/version1726604200/frontend/Smartwave/okf/en_GB/Magedelight_Storepickup/images/image-default.png,Phone no: <a href=
8,-31.893919,26.871439,"63 Robinson Road, Queenstown, Eastern Cape, South Africa. - 5319",https://www.okfurniture.co.za/queenstown/,Queenstown (9169),https://www.okfurniture.co.za/static/version1726604200/frontend/Smartwave/okf/en_GB/Magedelight_Storepickup/images/image-default.png,Phone no: <a href=
246,-31.896631,26.873945,"62 Cathcart Street, Queenstown, Eastern Cape, South Africa. - 5320",https://www.okfurniture.co.za/queenstown-2/,Queenstown 2 (9341),https://www.okfurniture.co.za/static/version1726604200/frontend/Smartwave/okf/en_GB/Magedelight_Storepickup/images/image-default.png,Phone no: <a href=
298,-31.163507,28.869617,"Shoprite centre, main street (N2), Qumbu, EC, Qumbu, Eastern Cape, South Africa. - 5180",https://www.okfurniture.co.za/qumbu/,Qumbu (6853),https://www.okfurniture.co.za/static/version1726604200/frontend/Smartwave/okf/en_GB/Magedelight_Storepickup/images/image-default.png,Phone no: <a href=
106,-26.092131,28.000565,"Randburg Square, Cnr Hill & Pretoria Steet Sanlam Street , Randbdurg, JHB Central, South Africa. - 2194",https://www.okfurniture.co.za/randburg/,Randburg (7905),https://www.okfurniture.co.za/static/version1726604200/frontend/Smartwave/okf/en_GB/Magedelight_Storepickup/images/image-default.png,Phone no: <a href=
180,-26.179901,27.704563,"37 Main Reef Road, Randfontein West Ran, GAUTENG, South Africa. - 1759",https://www.okfurniture.co.za/randfontein/,Randfontein (7816),https://www.okfurniture.co.za/static/version1726604200/frontend/Smartwave/okf/en_GB/Magedelight_Storepickup/images/image-default.png,Phone no: <a href=
62,-28.758953,32.044022,"Shop 14, Checkers Centre,Bullion Boulevard , Richards Bay, Kwazulu Natal, South Africa. - 3900",https://www.okfurniture.co.za/richards-bay/,Richards Bay (4049),https://www.okfurniture.co.za/static/version1726604200/frontend/Smartwave/okf/en_GB/Magedelight_Storepickup/images/image-default.png,Phone no: <a href=
28,-33.806789,19.882311,"21 Reitz Street, Robertson, Western Cape, South Africa. - 6705",https://www.okfurniture.co.za/robertson/,Robertson (5352),https://www.okfurniture.co.za/static/version1726604200/frontend/Smartwave/okf/en_GB/Magedelight_Storepickup/images/image-default.png,Phone no: <a href=
181,-26.162001,27.870001,"54 Van Wyk Street, Roodepoort West Rand, Gauteng, South Africa. - 1724",https://www.okfurniture.co.za/roodepoort/,Roodepoort (7785),https://www.okfurniture.co.za/static/version1726604200/frontend/Smartwave/okf/en_GB/Magedelight_Storepickup/images/image-default.png,Phone no: <a href=
134,-25.671932,27.242359,"Cnr Nelson Mandela and Thabo Mbeki Drive, Rustenburg, North West, South Africa. - 299",https://www.okfurniture.co.za/rustenburg/,Rustenburg (9606),https://www.okfurniture.co.za/static/version1726604200/frontend/Smartwave/okf/en_GB/Magedelight_Storepickup/images/image-default.png,Phone no: <a href=
338,-25.677999,31.509916,"Shop 3A,Matsamo Plaza,Cnr R570 & R323,Buffelspruit, Schoemansdal, Nelspruit, South Africa. - 1331",https://www.okfurniture.co.za/schoemansdal/,Schoemansdal (8093),https://www.okfurniture.co.za/static/version1726604200/frontend/Smartwave/okf/en_GB/Magedelight_Storepickup/images/image-default.png,Phone no: <a href=
155,-27.192808,25.328804,"49 Schweizer Street, Schweizer Reneke, Goldfields 2, South Africa. - 2780",https://www.okfurniture.co.za/schweizer-reneke/,Schweizer Reneke (3116),https://www.okfurniture.co.za/static/version1726604200/frontend/Smartwave/okf/en_GB/Magedelight_Storepickup/images/image-default.png,Phone no: <a href=
85,-30.278271,30.75507,"92 Williamson Street, Scottburgh, Kwazulu Natal, South Africa. - 4180",https://www.okfurniture.co.za/scottburgh/,Scottburgh (9046),https://www.okfurniture.co.za/static/version1726604200/frontend/Smartwave/okf/en_GB/Magedelight_Storepickup/images/image-default.png,Phone no: <a href=
371,-26.578707,27.841558,"SHOP NO 31 , SEBOKENG PLAZA, SEBOKENG PLAZA, South Africa. - 1983",https://www.okfurniture.co.za/sebokeng-plaza-temporarily-closed/,Sebokeng Plaza (4452),https://www.okfurniture.co.za/static/version1726604200/frontend/Smartwave/okf/en_GB/Magedelight_Storepickup/images/image-default.png,
121,-26.516111,29.202778,"Lurgi Square, Secunda, Secunda, South Africa. - 2302",https://www.okfurniture.co.za/secunda/,Secunda (5628),https://www.okfurniture.co.za/static/version1726604200/frontend/Smartwave/okf/en_GB/Magedelight_Storepickup/images/image-default.png,Phone no: <a href=
48,-28.313789,27.631342,"Cnr Charl Cilliers Str & Voortrekker Rd, Senekal, Free State, South Africa. - 9600",https://www.okfurniture.co.za/senekal/,Senekal (3723),https://www.okfurniture.co.za/static/version1726604200/frontend/Smartwave/okf/en_GB/Magedelight_Storepickup/images/image-default.png,Phone no: <a href=
201,-23.852402,29.400743,"Cnr Nelson Mandela and Polokwane Drive, Seshego, Limpopo, South Africa. - 742",https://www.okfurniture.co.za/seshego/,Seshego (4841),https://www.okfurniture.co.za/static/version1726604200/frontend/Smartwave/okf/en_GB/Magedelight_Storepickup/images/image-default.png,Phone no: <a href=
365,-25.733904,28.302193,"SHOP NO 18, SILVER MALL,617 PRETORIUS STREET, Pretoria, South Africa. - 8",https://www.okfurniture.co.za/silverton/,Silverton (8195),https://www.okfurniture.co.za/static/version1726604200/frontend/Smartwave/okf/en_GB/Magedelight_Storepickup/images/image-default.png,Phone no: <a href=
102,-25.129358,29.043083,"Portion 48 Valschfontein 33J5,Bongimfundo Street , Siyabuswa, Limpopo, South Africa. - 472",https://www.okfurniture.co.za/siyabuswa/,Siyabuswa (5313),https://www.okfurniture.co.za/static/version1726604200/frontend/Smartwave/okf/en_GB/Magedelight_Storepickup/images/image-default.png,Phone no: <a href=
319,-25.147833,29.084593,"Shop 54, Mall @ Moutsiya Cnr of R568 (Zebediela Rd) & R573 (Moloto Road), Siyabuswa, Limpopo, South Africa. - 472",https://www.okfurniture.co.za/siyabuswa-mall-at-moutsiya/,Siyabuswa Mall at Moutsiya  (9645),https://www.okfurniture.co.za/static/version1726604200/frontend/Smartwave/okf/en_GB/Magedelight_Storepickup/images/image-default.png,Phone no: <a href=
448,-26.41395,28.12053,"Shop 86 Sky City Mall, Cnr R550 and K91, Vereeniging, Gauteng, South Africa. - 1930",https://www.okfurniture.co.za/sky-city-ok-furniture-1/,Sky City OKF (1049),https://www.okfurniture.co.za/static/version1726604200/frontend/Smartwave/okf/en_GB/Magedelight_Storepickup/images/image-default.png,Phone no: <a href=
18,-34.083447,18.847891,"Andries Pretorius Street, Somerset West, Western Cape, South Africa. - 7130",https://www.okfurniture.co.za/somerset-west/,Somerset West (8147),https://www.okfurniture.co.za/static/version1726604200/frontend/Smartwave/okf/en_GB/Magedelight_Storepickup/images/image-default.png,Phone no: <a href=
127,-26.267542,27.981598,"Shop 251, Southgate Shopping Centre,Cnr Russel & Culumbine, Bertram, Soweto, South Africa. - 2091",https://www.okfurniture.co.za/southgate/,Southgate (7921),https://www.okfurniture.co.za/static/version1726604200/frontend/Smartwave/okf/en_GB/Magedelight_Storepickup/images/image-default.png,Phone no: <a href=
36,-29.668385,17.883078,"No. 2 Voortrekker Street, Springbok, Western Cape, South Africa. - 8240",https://www.okfurniture.co.za/springbok/,Springbok (6639),https://www.okfurniture.co.za/static/version1726604200/frontend/Smartwave/okf/en_GB/Magedelight_Storepickup/images/image-default.png,Phone no: <a href=
195,-26.25687,28.440992,"Cnr 5th Str & 6th Ave, Springs, GAUTENG, South Africa. - 1560",https://www.okfurniture.co.za/springs/,Springs (5555),https://www.okfurniture.co.za/static/version1726604200/frontend/Smartwave/okf/en_GB/Magedelight_Storepickup/images/image-default.png,Phone no: <a href=
120,-26.947269,29.24688,"Cr Mbonani Mayisela & Charl Cilliers, Standerton, Standerton, South Africa. - 2430",https://www.okfurniture.co.za/standerton/,Standerton (5539),https://www.okfurniture.co.za/static/version1726604200/frontend/Smartwave/okf/en_GB/Magedelight_Storepickup/images/image-default.png,Phone no: <a href=
416,-26.247086,28.08662,"19 Linroy Str, Steeldale, GAUTENG, South Africa. - 2197",https://www.okfurniture.co.za/steeldale-1/,Steeldale (6321),https://www.okfurniture.co.za/static/version1726604200/frontend/Smartwave/okf/en_GB/Magedelight_Storepickup/images/image-default.png,Phone no: <a href=
16,-33.929153,18.857449,"Akkerhof Bird Street, Stellenbosch, Western Cape, South Africa. - 7600",https://www.okfurniture.co.za/stellenbosch/,Stellenbosch (8236),https://www.okfurniture.co.za/static/version1726604200/frontend/Smartwave/okf/en_GB/Magedelight_Storepickup/images/image-default.png,Phone no: <a href=
17,-34.130917,18.856226,"Broadway Square 10, Strand, Western Cape, South Africa. - 7140",https://www.okfurniture.co.za/strand/,Strand (4459),https://www.okfurniture.co.za/static/version1726604200/frontend/Smartwave/okf/en_GB/Magedelight_Storepickup/images/image-default.png,Phone no: <a href=
311,-32.568481,27.428749,"Cnr Alfred & Maclean Street, Stutterheim, Stutterheim, South Africa, South Africa. - 4930",https://www.okfurniture.co.za/stutterheim/,Stutterheim (3482),https://www.okfurniture.co.za/static/version1726604200/frontend/Smartwave/okf/en_GB/Magedelight_Storepickup/images/image-default.png,Phone no: <a href=
61,-29.14852,31.405899,"Sundumbili Plaza, Mandini, Kwazulu Natal, South Africa. - 4490",https://www.okfurniture.co.za/sundumbili/,Sundumbili (9096),https://www.okfurniture.co.za/static/version1726604200/frontend/Smartwave/okf/en_GB/Magedelight_Storepickup/images/image-default.png,Phone no: <a href=
208,-30.459034,28.207909,"Cnr Esselen & Lleyds Streets, Sunnyside, Pretoria, South Africa. - 2",https://www.okfurniture.co.za/sunnyside/,Sunnyside (9622),https://www.okfurniture.co.za/static/version1726604200/frontend/Smartwave/okf/en_GB/Magedelight_Storepickup/images/image-default.png,Phone no: <a href=
402,-27.559271,24.751881,"Shop 5 & 6 Taung Centre, Taung, Goldfields 2, South Africa. - 8580",https://www.okfurniture.co.za/taung-1/,Taung (4454),https://www.okfurniture.co.za/static/version1726604200/frontend/Smartwave/okf/en_GB/Magedelight_Storepickup/images/image-default.png,Phone no: <a href=
104,-26.016834,28.213894,"Shop 2 D ,Tembisa Mall ,Cnr Isimuku & Andrew Mapheto Drive , Tembisa, JHB Central, South Africa. - 1632",https://www.okfurniture.co.za/tembisa-2/,Tembisa 2 (5991),https://www.okfurniture.co.za/static/version1726604200/frontend/Smartwave/okf/en_GB/Magedelight_Storepickup/images/image-default.png,Phone no: <a href=
362,-25.959047,28.204431,"Shop LG10A, Tembisa Mall, Olifantsfontein Road, Clayville, South Africa. - 1666",https://www.okfurniture.co.za/ok-furniture-tembisa-mall/,Tembisa Mall (9918),https://www.okfurniture.co.za/static/version1726604200/frontend/Smartwave/okf/en_GB/Magedelight_Storepickup/images/image-default.png,
422,-26.016525,28.213205,"Shop 27 , Tembisa Plaza, Esangweni Section ,Andrew Mapheto Drive, Tembisa, JHB Central, South Africa. - 1632",https://www.okfurniture.co.za/tembisa-1/,Tembisa Plaza (4011) ,https://www.okfurniture.co.za/static/version1726604200/frontend/Smartwave/okf/en_GB/Magedelight_Storepickup/images/image-default.png,Phone no: <a href=
59,-29.198324,26.836166,"404 Corner Stone Building,Main Street, Thaba Nchu, Free State, South Africa. - 9780",https://www.okfurniture.co.za/thaba-nchu/,Thaba Nchu (5987),https://www.okfurniture.co.za/static/version1726604200/frontend/Smartwave/okf/en_GB/Magedelight_Storepickup/images/image-default.png,Phone no: <a href=
270,-24.588909,27.411539,"3 Rietbok Street, Thabazimbi , Thabazimbi, ZA, South Africa. - 380",https://www.okfurniture.co.za/thabazimbi/,Thabazimbi (9488),https://www.okfurniture.co.za/static/version1726604200/frontend/Smartwave/okf/en_GB/Magedelight_Storepickup/images/image-default.png,Phone no: <a href=
306,-27.969723,26.807222,"Boitumelo Junction, Cnr A Phakathi Road & A Mokoena Drive, Thabong, Free State, South Africa. - 9869",https://www.okfurniture.co.za/thabong/,Thabong (9363),https://www.okfurniture.co.za/static/version1726604200/frontend/Smartwave/okf/en_GB/Magedelight_Storepickup/images/image-default.png,Phone no: <a href=
197,-22.973066,30.459034,"Off East Parking Area, Thohoyandou, Limpopo, South Africa. - 950",https://www.okfurniture.co.za/thohoyandou/,Thohoyandou (5767),https://www.okfurniture.co.za/static/version1726604200/frontend/Smartwave/okf/en_GB/Magedelight_Storepickup/images/image-default.png,Phone no: <a href=
352,-24.723387,31.210623,"Shop 2, Thula Mall, Kumani Road - Erven 64-100,Mpumalanga, Thulamahashe, South Africa. - 1365",https://www.okfurniture.co.za/thulamahashe/,Thulamahashe (8096),https://www.okfurniture.co.za/static/version1726604200/frontend/Smartwave/okf/en_GB/Magedelight_Storepickup/images/image-default.png,Phone no: <a href=
388,-23.63852,29.01596,"Shop 39 Tibani Shopping Centre, Portion 47 Matlala\",https://www.okfurniture.co.za/tibanifontein/,Tibanifontein (7821),https://www.okfurniture.co.za/static/version1726604200/frontend/Smartwave/okf/en_GB/Magedelight_Storepickup/images/image-default.png,Phone no: <a href=
92,-25.686073,31.781956,"Shop 13-15 , NO 475 Tonga Mall,Tonga Road , Tonga, Mpumalanga, South Africa. - 1341",https://www.okfurniture.co.za/tonga/,Tonga (3006),https://www.okfurniture.co.za/static/version1726604200/frontend/Smartwave/okf/en_GB/Magedelight_Storepickup/images/image-default.png,Phone no: <a href=
405,-29.574308,31.113538,"Shop No.41, O Thongathi Mall, 263 Gopalall, Hurbans Street, Tongaat, KwaZulu Natal, South Africa. - 4339",https://www.okfurniture.co.za/tongaat-okf-1/,Tongaat OKF (1697),https://www.okfurniture.co.za/static/version1726604200/frontend/Smartwave/okf/en_GB/Magedelight_Storepickup/images/image-default.png,Phone no: <a href=
191,-26.356392,28.370289,"Cnr Malandela & Modjadji Str, Tsakane, Tsakane, South Africa. - 1548",https://www.okfurniture.co.za/tsakane/,Tsakane (5355),https://www.okfurniture.co.za/static/version1726604200/frontend/Smartwave/okf/en_GB/Magedelight_Storepickup/images/image-default.png,Phone no: <a href=
241,-31.307571,28.749279,"Shop 3 Cnr Thurston and OConnor street Tsolo, Tsolo, Easten Cape, South Africa. - 5170",https://www.okfurniture.co.za/tsolo-pex/,Tsolo PEX (9271),https://www.okfurniture.co.za/static/version1726604200/frontend/Smartwave/okf/en_GB/Magedelight_Storepickup/images/image-default.png,Phone no: <a href=
280,-28.755711,30.442539,"Shop 2, Tugela Ferry Mall, Portion, Tugela Ferry, Kwa Zula Natal, South Africa. - 3010",https://www.okfurniture.co.za/tugela-ferry/,Tugela Ferry (9277),https://www.okfurniture.co.za/static/version1726604200/frontend/Smartwave/okf/en_GB/Magedelight_Storepickup/images/image-default.png,Phone no: <a href=
206,-23.827311,30.162445,"Cnr Danie Joubert & Road to Lydenburg, Tzaneen, Limpopo, South Africa. - 850",https://www.okfurniture.co.za/tzaneen/,Tzaneen (5775),https://www.okfurniture.co.za/static/version1726604200/frontend/Smartwave/okf/en_GB/Magedelight_Storepickup/images/image-default.png,Phone no: <a href=
3,-33.768909,25.397341,"Cnr Baird & Gerald Smith Street, Uitenhage, Port Elizabeth, South Africa. - 6229",https://www.okfurniture.co.za/uitenhage/,Uitenhage (9567),https://www.okfurniture.co.za/static/version1726604200/frontend/Smartwave/okf/en_GB/Magedelight_Storepickup/images/image-default.png,Phone no: <a href=
65,-28.30444,31.41975,"c/o Princess Gqikazi & Princess Mkabayi str, Ulundi, Kwazulu Natal, South Africa. - 3838",https://www.okfurniture.co.za/ulundi/,Ulundi (8422),https://www.okfurniture.co.za/static/version1726604200/frontend/Smartwave/okf/en_GB/Magedelight_Storepickup/images/image-default.png,Phone no: <a href=
381,-29.9551664,30.9398446,"SHOP NO 102, , UMLAZI MEGA CITY, South Africa. - 4031",https://www.okfurniture.co.za/umlazi-mega-city/,Umlazi Mega City (3548),https://www.okfurniture.co.za/static/version1726604200/frontend/Smartwave/okf/en_GB/Magedelight_Storepickup/images/image-default.png,Phone no: <a href=
80,-30.268339,29.936041,"Shop 9 & 10, c/o R56 Main Road & Bird Street (P501), Umzimkhulu, Kwazulu Natal, South Africa. - 4001",https://www.okfurniture.co.za/umzimkhulu/,Umzimkhulu (5769),https://www.okfurniture.co.za/static/version1726604200/frontend/Smartwave/okf/en_GB/Magedelight_Storepickup/images/image-default.png,Phone no: <a href=
277,-30.309036,30.663239,"Lot 337, Main Road, Umzinto, Durban, Kwa Zulu / Natal, South Africa. - 4200",https://www.okfurniture.co.za/umzinto/,Umzinto (9652),https://www.okfurniture.co.za/static/version1726604200/frontend/Smartwave/okf/en_GB/Magedelight_Storepickup/images/image-default.png,Phone no: <a href=
150,-28.458412,21.245396,"Scott Street, Upington, Goldfields 2, South Africa. - 8801",https://www.okfurniture.co.za/upington/,Upington (7913),https://www.okfurniture.co.za/static/version1726604200/frontend/Smartwave/okf/en_GB/Magedelight_Storepickup/images/image-default.png,Phone no: <a href=
153,-28.27623,21.14596,"34-38 Scott Street, Upington, Goldfields 2, South Africa. - 8801",https://www.okfurniture.co.za/upington-pex/,Upington PEX (3030),https://www.okfurniture.co.za/static/version1726604200/frontend/Smartwave/okf/en_GB/Magedelight_Storepickup/images/image-default.png,Phone no: <a href=
302,-29.641256,31.047625,"127 Wicks Street, Verulam, Kwazulu Natal, South Africa. - 4339",https://www.okfurniture.co.za/verulam/,Verulam (3377),https://www.okfurniture.co.za/static/version1726604200/frontend/Smartwave/okf/en_GB/Magedelight_Storepickup/images/image-default.png,Phone no: <a href=
47,-28.104769,26.866718,"16 Government Road, Virginia, Free State, South Africa. - 9430",https://www.okfurniture.co.za/virginia/,Virginia (6072),https://www.okfurniture.co.za/static/version1726604200/frontend/Smartwave/okf/en_GB/Magedelight_Storepickup/images/image-default.png,Phone no: <a href=
69,-27.367373,29.883093,"Shop 7, Amajuba Shopping Centre, c/o Vrede & Joubert street, Volksrust, Kwazulu Natal, South Africa. - 2470",https://www.okfurniture.co.za/volksrust/,Volksrust (5314),https://www.okfurniture.co.za/static/version1726604200/frontend/Smartwave/okf/en_GB/Magedelight_Storepickup/images/image-default.png,Phone no: <a href=
192,-26.351057,28.199162,"Moage Str, Vosloorus, Vosloorus, South Africa. - 1549",https://www.okfurniture.co.za/vosloorus/,Vosloorus (4355),https://www.okfurniture.co.za/static/version1726604200/frontend/Smartwave/okf/en_GB/Magedelight_Storepickup/images/image-default.png,Phone no: <a href=
193,-26.345575,28.18182,"Chris Hani Shopping Centre,Bierman Rd, Vosloorus, Vosloorus, South Africa. - 1549",https://www.okfurniture.co.za/vosloorus-chris-hani-temporarily-closed/,Vosloorus Chris Hani (5523),https://www.okfurniture.co.za/static/version1726604200/frontend/Smartwave/okf/en_GB/Magedelight_Storepickup/images/image-default.png,Phone no: <a href=
26,-32.900433,17.999121,"51 Velddrift Road, Vredenburg, Western Cape, South Africa. - 7380",https://www.okfurniture.co.za/vredenburg/,Vredenburg (5474),https://www.okfurniture.co.za/static/version1726604200/frontend/Smartwave/okf/en_GB/Magedelight_Storepickup/images/image-default.png,Phone no: <a href=
32,-31.662716,18.508268,"3, Commercial Complex,Voortrekker Road, Vredendal, Western Cape, South Africa. - 8160",https://www.okfurniture.co.za/vredendal/,Vredendal (4785),https://www.okfurniture.co.za/static/version1726604200/frontend/Smartwave/okf/en_GB/Magedelight_Storepickup/images/image-default.png,Phone no: <a href=
148,-26.958414,24.729782,"48-50 Market Street, Vryburg, Goldfields 2, South Africa. - 8601",https://www.okfurniture.co.za/vryburg/,Vryburg (5945),https://www.okfurniture.co.za/static/version1726604200/frontend/Smartwave/okf/en_GB/Magedelight_Storepickup/images/image-default.png,Phone no: <a href=
68,-27.765638,30.794985,"c/o Utrecht & Landrost street, Vryheid, Kwazulu Natal, South Africa. - 3100",https://www.okfurniture.co.za/vryheid/,Vryheid (9054),https://www.okfurniture.co.za/static/version1726604200/frontend/Smartwave/okf/en_GB/Magedelight_Storepickup/images/image-default.png,Phone no: <a href=
46,-27.98448,26.73982,"Cnr Bok & Karoo Street, Welkom, Free State, South Africa. - 9460",https://www.okfurniture.co.za/welkom/,Welkom (6030),https://www.okfurniture.co.za/static/version1726604200/frontend/Smartwave/okf/en_GB/Magedelight_Storepickup/images/image-default.png,Phone no: <a href=
260,-27.509453,25.542358,"Shop no 5, Ross Centre, Louis Kotze street, Wesselsbron , Wesselsbron, ZA, South Africa. - 9680",https://www.okfurniture.co.za/wesselsbron/,Wesselsbron (9380),https://www.okfurniture.co.za/static/version1726604200/frontend/Smartwave/okf/en_GB/Magedelight_Storepickup/images/image-default.png,Phone no: <a href=
369,-29.857849,31.023924,"381 WEST STREET, 381 WEST STREET, South Africa. - 4001",https://www.okfurniture.co.za/west-street/,West Street (8383),https://www.okfurniture.co.za/static/version1726604200/frontend/Smartwave/okf/en_GB/Magedelight_Storepickup/images/image-default.png,Phone no: <a href=
183,-26.3216,27.653099,"Cnr Edwards Ave & Allen St, Westonaria, Gauteng, South Africa. - 1789",https://www.okfurniture.co.za/westonaria/,Westonaria (7882),https://www.okfurniture.co.za/static/version1726604200/frontend/Smartwave/okf/en_GB/Magedelight_Storepickup/images/image-default.png,Phone no: <a href=
94,-25.326359,31.019594,"22 William Lynn Street, White River, Mpumalanga, South Africa. - 1240",https://www.okfurniture.co.za/white-river/,White River (5725),https://www.okfurniture.co.za/static/version1726604200/frontend/Smartwave/okf/en_GB/Magedelight_Storepickup/images/image-default.png,Phone no: <a href=
124,-25.875832,29.210699,"Cnr Haig and Eadies str, Witbank, Witbank, South Africa. - 1035",https://www.okfurniture.co.za/witbank/,Witbank (5694),https://www.okfurniture.co.za/static/version1726604200/frontend/Smartwave/okf/en_GB/Magedelight_Storepickup/images/image-default.png,Phone no: <a href=
143,-27.204641,25.981672,"Broadbent Street, Wolmaransstad, Goldfields, South Africa. - 2630",https://www.okfurniture.co.za/wolmaransstad/,Wolmaransstad (5375),https://www.okfurniture.co.za/static/version1726604200/frontend/Smartwave/okf/en_GB/Magedelight_Storepickup/images/image-default.png,Phone no: <a href=
29,-33.643101,19.448002,"55 High Street, Worcster, Western Cape, South Africa. - 6850",https://www.okfurniture.co.za/worcester/,Worcester (8309),https://www.okfurniture.co.za/static/version1726604200/frontend/Smartwave/okf/en_GB/Magedelight_Storepickup/images/image-default.png,Phone no: <a href=
14,-34.002064,18.46928,"Maynard Mall, Main Road, Wynberg, Western Cape, South Africa. - 7800",https://www.okfurniture.co.za/wynberg/,Wynberg (8171),https://www.okfurniture.co.za/static/version1726604200/frontend/Smartwave/okf/en_GB/Magedelight_Storepickup/images/image-default.png,Phone no: <a href=
367,-25.54517,26.077829,"24 CHURCH STR , ZEERUST, PRETORIA, South Africa. - 2865",https://www.okfurniture.co.za/zeerust/,Zeerust (9316),https://www.okfurniture.co.za/static/version1726604200/frontend/Smartwave/okf/en_GB/Magedelight_Storepickup/images/image-default.png,Phone no: <a href=
427,-27.133228728588563,32.00362558955549,"Shop 5 & 6 iNgwavuma, Supersave Centre, Main Road, Ngwavuma, KwaZulu Natal, South Africa. - 3968",https://www.okfurniture.co.za/ingwavuma-okf-1/,iNgwavuma OKF (1055),https://www.okfurniture.co.za/static/version1726604200/frontend/Smartwave/okf/en_GB/Magedelight_Storepickup/images/image-default.png,Phone no: <a href=
